{
"type": "FeatureCollection",
"name": "stations_live",
"crs": { "type": "name", "properties": { "name": "urn:ogc:def:crs:OGC:1.3:CRS84" } },
"features": [
{ "type": "Feature", "properties": { "station": "06203", "source_filename": "KMDS__OPER_P___10M_OBS_L2_202609280140.nc", "observation_time": "2026-09-28T01:40:00Z", "D1H": null, "Q1H": null, "Q24H": null, "R12H": null, "R1H": null, "R24H": null, "R6H": null, "Sav1H": 5.68269, "Sax1H": 6.00557, "Sax3H": 8.40611, "Sax6H": 8.40611, "Sx1H": 7.15483, "Sx3H": 9.72257, "Sx6H": 10.445, "Tb1n6": null, "Tb1x6": null, "Tb2n6": null, "Tb2x6": null, "Tgn12": null, "Tgn14": null, "Tgn6": null, "Tn12": 17.7, "Tn14": 17.3, "Tn6": 18.6, "Tx12": 19.8, "Tx24": 19.8, "Tx6": 19.6, "W10": 6.0, "W10-10": 6.0, "dd": 245.5, "dn": 237.7, "dr": null, "dsd": 3.4, "dx": 251.7, "ff": 5.48334, "ffs": 6.51, "fsd": 0.41, "fx": null, "fxs": null, "gff": 6.38887, "gffs": 7.34, "h": 1094.92, "h1": 1094.92, "h2": 1344.92, "h3": 1704.92, "hc": 1094.92, "hc1": 1094.92, "hc2": 1344.92, "hc3": 1704.92, "n": 8.0, "n1": 2.0, "n2": 5.0, "n3": 6.0, "nc": 8.0, "nc1": 2.0, "nc2": 5.0, "nc3": 6.0, "nhc": 8.0, "p0": 1011.67, "pg": 0.687, "pp": 1016.63, "pr": 84.0, "ps": 1013.8, "pwc": 60.0, "qg": null, "qgn": null, "qgx": null, "qnh": 1016.7, "rg": null, "rh": 89.0, "sq": 0.0, "ss": null, "ta": 19.1, "tb": 17.878, "tb1": null, "tb2": null, "tb3": null, "tb4": null, "tb5": null, "td": 17.3, "tg": null, "tgn": null, "tn": 19.1, "tsd": null, "tx": 19.3, "vv": 19400.0, "ww": 61.0, "ww-10": 61.0, "za": 4.08, "zm": 19400.0, "wsi": "0-20000-0-06203", "stationname": "P11-B", "latitude": 52.36, "longitude": 3.3417, "height": 41.84, "product": "", "projection": "" }, "geometry": { "type": "Point", "coordinates": [ 3.3417, 52.36 ] } },
{ "type": "Feature", "properties": { "station": "06275", "source_filename": "KMDS__OPER_P___10M_OBS_L2_202609280140.nc", "observation_time": "2026-09-28T01:40:00Z", "D1H": 2.2, "Q1H": 0.0, "Q24H": 1206.6, "R12H": 0.0, "R1H": 0.0, "R24H": 0.0, "R6H": 0.0, "Sav1H": 0.5, "Sax1H": 0.86, "Sax3H": 1.52, "Sax6H": 1.67, "Sx1H": 1.4, "Sx3H": 1.75, "Sx6H": 1.91, "Tb1n6": null, "Tb1x6": null, "Tb2n6": null, "Tb2x6": null, "Tgn12": 11.3, "Tgn14": 11.3, "Tgn6": 11.3, "Tn12": 12.7, "Tn14": 12.7, "Tn6": 12.7, "Tx12": 22.7, "Tx24": 22.7, "Tx6": 15.8, "W10": 0.0, "W10-10": 8.0, "dd": 103.9, "dn": 101.3, "dr": 0.0, "dsd": 4.5, "dx": 112.5, "ff": 0.66, "ffs": 0.66, "fsd": 0.41, "fx": 1.4, "fxs": 1.4, "gff": 1.4, "gffs": 1.4, "h": 6414.92, "h1": 6414.92, "h2": 0.0, "h3": 0.0, "hc": 6414.92, "hc1": 6414.92, "hc2": 0.0, "hc3": 0.0, "n": 8.0, "n1": 8.0, "n2": 0.0, "n3": 0.0, "nc": 8.0, "nc1": 8.0, "nc2": 0.0, "nc3": 0.0, "nhc": 8.0, "p0": 1012.48, "pg": 0.0, "pp": 1017.85, "pr": 0.0, "ps": 1012.3, "pwc": 0.0, "qg": 0.0, "qgn": 0.0, "qgx": 1.0, "qnh": 1017.91, "rg": 0.0, "rh": 93.0, "sq": 0.0, "ss": 0.0, "ta": 14.4, "tb": 13.7238, "tb1": null, "tb2": null, "tb3": null, "tb4": null, "tb5": null, "td": 13.3, "tg": 13.6, "tgn": 13.1, "tn": 14.0, "tsd": null, "tx": 14.4, "vv": 10100.0, "ww": 23.0, "ww-10": 81.0, "za": 4.3, "zm": 10100.0, "wsi": "0-20000-0-06275", "stationname": "Deelen Airport", "latitude": 52.0589, "longitude": 5.8731, "height": 44.92, "product": "", "projection": "" }, "geometry": { "type": "Point", "coordinates": [ 5.8731, 52.0589 ] } },
{ "type": "Feature", "properties": { "station": "06277", "source_filename": "KMDS__OPER_P___10M_OBS_L2_202609280140.nc", "observation_time": "2026-09-28T01:40:00Z", "D1H": 5.2, "Q1H": 0.0, "Q24H": 1101.48, "R12H": 0.0109833, "R1H": 0.0109833, "R24H": 0.0109833, "R6H": 0.0109834, "Sav1H": 2.27233, "Sax1H": 3.07, "Sax3H": 3.87, "Sax6H": 3.87, "Sx1H": 4.55, "Sx3H": 6.2, "Sx6H": 6.2, "Tb1n6": null, "Tb1x6": null, "Tb2n6": null, "Tb2x6": null, "Tgn12": 11.4, "Tgn14": 11.4, "Tgn6": 11.4, "Tn12": 14.7, "Tn14": 14.7, "Tn6": 14.7, "Tx12": 21.2, "Tx24": 21.6, "Tx6": 17.0, "W10": null, "W10-10": null, "dd": 183.5, "dn": 163.1, "dr": 0.0, "dsd": 7.1, "dx": 202.5, "ff": 1.71, "ffs": 1.71, "fsd": 0.2, "fx": 2.59, "fxs": 2.59, "gff": 2.26, "gffs": 2.26, "h": null, "h1": null, "h2": null, "h3": null, "hc": null, "hc1": null, "hc2": null, "hc3": null, "n": null, "n1": null, "n2": null, "n3": null, "nc": null, "nc1": null, "nc2": null, "nc3": null, "nhc": null, "p0": null, "pg": null, "pp": null, "pr": null, "ps": null, "pwc": null, "qg": 0.0, "qgn": 0.0, "qgx": 0.0, "qnh": null, "rg": 0.0, "rh": 93.0, "sq": 0.0, "ss": 0.0, "ta": 16.4, "tb": 15.6821, "tb1": null, "tb2": null, "tb3": null, "tb4": null, "tb5": null, "td": 15.3, "tg": 16.0, "tgn": 16.0, "tn": 16.4, "tsd": null, "tx": 16.5, "vv": null, "ww": null, "ww-10": null, "za": null, "zm": null, "wsi": "0-20000-0-06277", "stationname": "Lauwersoog", "latitude": 53.4117, "longitude": 6.1992, "height": 2.9, "product": "", "projection": "" }, "geometry": { "type": "Point", "coordinates": [ 6.1992, 53.4117 ] } },
{ "type": "Feature", "properties": { "station": "06278", "source_filename": "KMDS__OPER_P___10M_OBS_L2_202609280140.nc", "observation_time": "2026-09-28T01:40:00Z", "D1H": 0.0, "Q1H": 0.0, "Q24H": 1157.16, "R12H": 0.0, "R1H": 0.0, "R24H": 0.0, "R6H": 0.0, "Sav1H": 0.5875, "Sax1H": 0.82, "Sax3H": 1.1, "Sax6H": 1.1, "Sx1H": 2.64, "Sx3H": 3.2, "Sx6H": 3.2, "Tb1n6": null, "Tb1x6": null, "Tb2n6": null, "Tb2x6": null, "Tgn12": 8.7, "Tgn14": 8.7, "Tgn6": 8.7, "Tn12": 11.1, "Tn14": 11.1, "Tn6": 11.1, "Tx12": 23.1, "Tx24": 23.2, "Tx6": 14.3, "W10": null, "W10-10": null, "dd": 181.9, "dn": 139.2, "dr": 0.0, "dsd": 16.4, "dx": 222.2, "ff": 0.78, "ffs": 0.78, "fsd": 0.31, "fx": 1.55, "fxs": 1.55, "gff": 1.55, "gffs": 1.55, "h": null, "h1": null, "h2": null, "h3": null, "hc": null, "hc1": null, "hc2": null, "hc3": null, "n": null, "n1": null, "n2": null, "n3": null, "nc": null, "nc1": null, "nc2": null, "nc3": null, "nhc": null, "p0": null, "pg": null, "pp": null, "pr": null, "ps": null, "pwc": null, "qg": 0.0, "qgn": 0.0, "qgx": 0.0, "qnh": null, "rg": 0.0, "rh": 97.0, "sq": 0.0, "ss": 0.0, "ta": 14.0, "tb": 13.7151, "tb1": null, "tb2": null, "tb3": null, "tb4": null, "tb5": null, "td": 13.5, "tg": 13.1, "tgn": 13.1, "tn": 14.0, "tsd": null, "tx": 14.3, "vv": null, "ww": null, "ww-10": null, "za": null, "zm": null, "wsi": "0-20000-0-06278", "stationname": "Heino", "latitude": 52.4344, "longitude": 6.2589, "height": 3.6, "product": "", "projection": "" }, "geometry": { "type": "Point", "coordinates": [ 6.2589, 52.4344 ] } },
{ "type": "Feature", "properties": { "station": "06279", "source_filename": "KMDS__OPER_P___10M_OBS_L2_202609280140.nc", "observation_time": "2026-09-28T01:40:00Z", "D1H": 0.0, "Q1H": 0.36, "Q24H": 1269.96, "R12H": 0.0, "R1H": 0.0, "R24H": 0.0, "R6H": 0.0, "Sav1H": 0.7445, "Sax1H": 0.99, "Sax3H": 1.27, "Sax6H": 1.27, "Sx1H": 1.5, "Sx3H": 1.81, "Sx6H": 1.81, "Tb1n6": null, "Tb1x6": null, "Tb2n6": null, "Tb2x6": null, "Tgn12": 8.6, "Tgn14": 8.6, "Tgn6": 8.6, "Tn12": 11.2, "Tn14": 11.2, "Tn6": 11.2, "Tx12": 24.3, "Tx24": 24.3, "Tx6": 14.7, "W10": 0.0, "W10-10": 0.0, "dd": 205.7, "dn": 173.0, "dr": 0.0, "dsd": 10.4, "dx": 226.4, "ff": 0.99, "ffs": 0.99, "fsd": 0.12, "fx": 1.5, "fxs": 1.5, "gff": 1.5, "gffs": 1.5, "h": 4784.92, "h1": 4784.92, "h2": 5444.92, "h3": 0.0, "hc": 4784.92, "hc1": 4784.92, "hc2": 5444.92, "hc3": 0.0, "n": 8.0, "n1": 4.0, "n2": 8.0, "n3": 0.0, "nc": 8.0, "nc1": 4.0, "nc2": 8.0, "nc3": 0.0, "nhc": 8.0, "p0": 1015.59, "pg": 0.0, "pp": 1017.47, "pr": 0.0, "ps": 1015.4, "pwc": 0.0, "qg": 1.0, "qgn": 1.0, "qgx": 1.0, "qnh": 1017.49, "rg": 0.0, "rh": 94.0, "sq": 0.0, "ss": 0.0, "ta": 14.7, "tb": 14.1161, "tb1": null, "tb2": null, "tb3": null, "tb4": null, "tb5": null, "td": 13.8, "tg": 13.8, "tgn": 13.7, "tn": 14.4, "tsd": null, "tx": 14.7, "vv": 16800.0, "ww": 2.0, "ww-10": 2.0, "za": 2.0, "zm": 16800.0, "wsi": "0-20000-0-06279", "stationname": "Hoogeveen", "latitude": 52.7489, "longitude": 6.5731, "height": 15.82, "product": "", "projection": "" }, "geometry": { "type": "Point", "coordinates": [ 6.5731, 52.7489 ] } },
{ "type": "Feature", "properties": { "station": "06280", "source_filename": "KMDS__OPER_P___10M_OBS_L2_202609280140.nc", "observation_time": "2026-09-28T01:40:00Z", "D1H": 6.0, "Q1H": 0.12, "Q24H": 1175.88, "R12H": 0.0, "R1H": 0.0, "R24H": 0.0, "R6H": 0.0, "Sav1H": 1.7885, "Sax1H": 2.37, "Sax3H": 2.37, "Sax6H": 2.37, "Sx1H": 2.99, "Sx3H": 2.99, "Sx6H": 2.99, "Tb1n6": null, "Tb1x6": null, "Tb2n6": null, "Tb2x6": null, "Tgn12": 8.2, "Tgn14": 8.2, "Tgn6": 8.2, "Tn12": 11.3, "Tn14": 11.3, "Tn6": 11.3, "Tx12": 23.0, "Tx24": 23.2, "Tx6": 15.4, "W10": 8.0, "W10-10": 0.0, "dd": 198.6, "dn": 181.4, "dr": 0.0, "dsd": 6.1, "dx": 216.6, "ff": 1.79, "ffs": 1.79, "fsd": 0.18, "fx": 2.53, "fxs": 2.53, "gff": 2.47, "gffs": 2.47, "h": 3014.92, "h1": 3014.92, "h2": 4034.92, "h3": 4954.92, "hc": 3014.92, "hc1": 3014.92, "hc2": 4034.92, "hc3": 4954.92, "n": 8.0, "n1": 5.0, "n2": 5.0, "n3": 7.0, "nc": 8.0, "nc1": 5.0, "nc2": 5.0, "nc3": 7.0, "nhc": 8.0, "p0": 1016.89, "pg": 0.0042, "pp": 1017.28, "pr": 0.0, "ps": 1016.8, "pwc": 60.0, "qg": 0.0, "qgn": 0.0, "qgx": 0.0, "qnh": 1017.28, "rg": 0.0, "rh": 88.0, "sq": 0.0, "ss": 0.0, "ta": 15.4, "tb": 14.1951, "tb1": null, "tb2": null, "tb3": null, "tb4": null, "tb5": null, "td": 13.6, "tg": 14.5, "tgn": 14.4, "tn": 15.1, "tsd": null, "tx": 15.4, "vv": 23800.0, "ww": 81.0, "ww-10": 23.0, "za": 2.0, "zm": 23800.0, "wsi": "0-20000-0-06280", "stationname": "Groningen Airport Eelde", "latitude": 53.1236, "longitude": 6.5847, "height": 3.23, "product": "", "projection": "" }, "geometry": { "type": "Point", "coordinates": [ 6.5847, 53.1236 ] } },
{ "type": "Feature", "properties": { "station": "06283", "source_filename": "KMDS__OPER_P___10M_OBS_L2_202609280140.nc", "observation_time": "2026-09-28T01:40:00Z", "D1H": 0.0, "Q1H": 0.0, "Q24H": 1255.98, "R12H": 0.0, "R1H": 0.0, "R24H": 0.0, "R6H": 0.0, "Sav1H": 0.790833, "Sax1H": 1.03, "Sax3H": 1.03, "Sax6H": 1.03, "Sx1H": 1.54, "Sx3H": 1.75, "Sx6H": 1.75, "Tb1n6": null, "Tb1x6": null, "Tb2n6": null, "Tb2x6": null, "Tgn12": 8.3, "Tgn14": 8.3, "Tgn6": 8.3, "Tn12": 11.9, "Tn14": 11.9, "Tn6": 11.9, "Tx12": 24.1, "Tx24": 24.8, "Tx6": 14.3, "W10": null, "W10-10": null, "dd": 133.5, "dn": 108.3, "dr": 0.0, "dsd": 9.0, "dx": 151.9, "ff": 1.03, "ffs": 1.03, "fsd": 0.18, "fx": 1.54, "fxs": 1.54, "gff": 1.54, "gffs": 1.54, "h": null, "h1": null, "h2": null, "h3": null, "hc": null, "hc1": null, "hc2": null, "hc3": null, "n": null, "n1": null, "n2": null, "n3": null, "nc": null, "nc1": null, "nc2": null, "nc3": null, "nhc": null, "p0": null, "pg": null, "pp": null, "pr": null, "ps": null, "pwc": null, "qg": 0.0, "qgn": 0.0, "qgx": 0.0, "qnh": null, "rg": 0.0, "rh": 94.0, "sq": 0.0, "ss": 0.0, "ta": 12.1, "tb": 11.5605, "tb1": null, "tb2": null, "tb3": null, "tb4": null, "tb5": null, "td": 11.2, "tg": 9.7, "tgn": 9.6, "tn": 12.1, "tsd": 0.4, "tx": 13.2, "vv": null, "ww": null, "ww-10": null, "za": null, "zm": null, "wsi": "0-20000-0-06283", "stationname": "Hupsel", "latitude": 52.0678, "longitude": 6.6567, "height": 29.07, "product": "", "projection": "" }, "geometry": { "type": "Point", "coordinates": [ 6.6567, 52.0678 ] } },
{ "type": "Feature", "properties": { "station": "06286", "source_filename": "KMDS__OPER_P___10M_OBS_L2_202609280140.nc", "observation_time": "2026-09-28T01:40:00Z", "D1H": 0.0, "Q1H": 0.24, "Q24H": 975.0, "R12H": 0.0, "R1H": 0.0, "R24H": 0.0, "R6H": 0.0, "Sav1H": 2.52567, "Sax1H": 2.84, "Sax3H": 2.84, "Sax6H": 2.84, "Sx1H": 3.67, "Sx3H": 3.67, "Sx6H": 3.67, "Tb1n6": 15.4, "Tb1x6": 16.7, "Tb2n6": 15.7, "Tb2x6": 16.4, "Tgn12": 11.0, "Tgn14": 11.0, "Tgn6": 11.0, "Tn12": 13.0, "Tn14": 13.0, "Tn6": 13.0, "Tx12": 24.7, "Tx24": 24.7, "Tx6": 15.0, "W10": null, "W10-10": null, "dd": 172.0, "dn": 153.3, "dr": 0.0, "dsd": 5.5, "dx": 189.8, "ff": 2.7, "ffs": 2.7, "fsd": 0.24, "fx": 3.67, "fxs": 3.67, "gff": 3.67, "gffs": 3.67, "h": null, "h1": null, "h2": null, "h3": null, "hc": null, "hc1": null, "hc2": null, "hc3": null, "n": null, "n1": null, "n2": null, "n3": null, "nc": null, "nc1": null, "nc2": null, "nc3": null, "nhc": null, "p0": null, "pg": null, "pp": null, "pr": null, "ps": null, "pwc": null, "qg": 0.0, "qgn": 0.0, "qgx": 1.0, "qnh": null, "rg": 0.0, "rh": 87.0, "sq": 0.0, "ss": 0.0, "ta": 14.9, "tb": 13.6097, "tb1": 15.4, "tb2": 15.7, "tb3": 15.9, "tb4": 15.8, "tb5": 15.7, "td": 12.8, "tg": 14.2, "tgn": 14.1, "tn": 14.7, "tsd": null, "tx": 14.9, "vv": null, "ww": null, "ww-10": null, "za": null, "zm": null, "wsi": "0-20000-0-06286", "stationname": "Nieuw Beerta", "latitude": 53.1944, "longitude": 7.1492, "height": -0.2, "product": "", "projection": "" }, "geometry": { "type": "Point", "coordinates": [ 7.1492, 53.1944 ] } },
{ "type": "Feature", "properties": { "station": "06290", "source_filename": "KMDS__OPER_P___10M_OBS_L2_202609280140.nc", "observation_time": "2026-09-28T01:40:00Z", "D1H": 0.0, "Q1H": 0.0, "Q24H": 1174.44, "R12H": null, "R1H": null, "R24H": null, "R6H": null, "Sav1H": 0.261, "Sax1H": 1.03, "Sax3H": 1.03, "Sax6H": 1.03, "Sx1H": 1.34, "Sx3H": 1.34, "Sx6H": 1.34, "Tb1n6": null, "Tb1x6": null, "Tb2n6": null, "Tb2x6": null, "Tgn12": 7.6, "Tgn14": 7.6, "Tgn6": 7.6, "Tn12": 10.8, "Tn14": 10.8, "Tn6": 10.8, "Tx12": 23.7, "Tx24": 24.7, "Tx6": 13.6, "W10": 0.0, "W10-10": 0.0, "dd": 121.9, "dn": 119.5, "dr": 0.0, "dsd": 1.4, "dx": 122.3, "ff": 0.0, "ffs": 0.0, "fsd": 0.0, "fx": 0.0, "fxs": 0.0, "gff": 0.0, "gffs": 0.0, "h": 22334.9, "h1": 22334.9, "h2": 0.0, "h3": 0.0, "hc": 22334.9, "hc1": 22334.9, "hc2": 0.0, "hc3": 0.0, "n": 8.0, "n1": 8.0, "n2": 0.0, "n3": 0.0, "nc": 8.0, "nc1": 8.0, "nc2": 0.0, "nc3": 0.0, "nhc": 0.0, "p0": 1013.88, "pg": 0.0, "pp": 1017.81, "pr": 0.0, "ps": 1013.7, "pwc": 0.0, "qg": 0.0, "qgn": 0.0, "qgx": 0.0, "qnh": 1017.85, "rg": 0.0125, "rh": 97.0, "sq": 0.0, "ss": 0.0, "ta": 12.2, "tb": 11.9311, "tb1": null, "tb2": null, "tb3": null, "tb4": null, "tb5": null, "td": 11.9, "tg": 9.3, "tgn": 9.3, "tn": 12.2, "tsd": null, "tx": 12.3, "vv": null, "ww": 20.0, "ww-10": 20.0, "za": null, "zm": 12900.0, "wsi": "0-20000-0-06290", "stationname": "Twenthe Airport", "latitude": 52.2731, "longitude": 6.8908, "height": 33.02, "product": "", "projection": "" }, "geometry": { "type": "Point", "coordinates": [ 6.8908, 52.2731 ] } },
{ "type": "Feature", "properties": { "station": "06310", "source_filename": "KMDS__OPER_P___10M_OBS_L2_202609280140.nc", "observation_time": "2026-09-28T01:40:00Z", "D1H": 0.0, "Q1H": 0.0, "Q24H": 1304.4, "R12H": 0.0, "R1H": 0.0, "R24H": 0.0, "R6H": 0.0, "Sav1H": 4.18367, "Sax1H": 4.8, "Sax3H": 4.8, "Sax6H": 4.8, "Sx1H": 5.87, "Sx3H": 5.87, "Sx6H": 5.87, "Tb1n6": null, "Tb1x6": null, "Tb2n6": null, "Tb2x6": null, "Tgn12": 17.4, "Tgn14": 17.4, "Tgn6": 17.4, "Tn12": 18.4, "Tn14": 18.4, "Tn6": 18.4, "Tx12": 21.9, "Tx24": 21.9, "Tx6": 19.6, "W10": 0.0, "W10-10": 0.0, "dd": 226.3, "dn": 215.2, "dr": 0.0, "dsd": 5.1, "dx": 239.1, "ff": 4.35, "ffs": 4.35, "fsd": 0.3, "fx": 5.87, "fxs": 5.87, "gff": 5.21, "gffs": 5.21, "h": 1174.92, "h1": 1174.92, "h2": 1384.92, "h3": 0.0, "hc": 1174.92, "hc1": 1174.92, "hc2": 1384.92, "hc3": 0.0, "n": 8.0, "n1": 5.0, "n2": 8.0, "n3": 0.0, "nc": 8.0, "nc1": 5.0, "nc2": 8.0, "nc3": 0.0, "nhc": 8.0, "p0": 1016.59, "pg": 0.0, "pp": 1017.54, "pr": 0.0, "ps": 1016.4, "pwc": 0.0, "qg": 0.0, "qgn": 0.0, "qgx": 0.0, "qnh": 1017.56, "rg": 0.0, "rh": 88.0, "sq": 0.0, "ss": 0.0, "ta": 18.4, "tb": 17.0891, "tb1": null, "tb2": null, "tb3": null, "tb4": null, "tb5": null, "td": 16.5, "tg": 17.9, "tgn": 17.9, "tn": 18.4, "tsd": 0.0, "tx": 18.5, "vv": 20700.0, "ww": 2.0, "ww-10": 2.0, "za": 5.94, "zm": 20700.0, "wsi": "0-20000-0-06310", "stationname": "Vlissingen", "latitude": 51.4414, "longitude": 3.5958, "height": 8.03, "product": "", "projection": "" }, "geometry": { "type": "Point", "coordinates": [ 3.5958, 51.4414 ] } },
{ "type": "Feature", "properties": { "station": "06317", "source_filename": "KMDS__OPER_P___10M_OBS_L2_202609280140.nc", "observation_time": "2026-09-28T01:40:00Z", "D1H": null, "Q1H": null, "Q24H": null, "R12H": null, "R1H": null, "R24H": null, "R6H": null, "Sav1H": 6.01761, "Sax1H": 6.38236, "Sax3H": 7.04806, "Sax6H": 7.04806, "Sx1H": 8.63483, "Sx3H": 9.28976, "Sx6H": 9.28976, "Tb1n6": null, "Tb1x6": null, "Tb2n6": null, "Tb2x6": null, "Tgn12": null, "Tgn14": null, "Tgn6": null, "Tn12": 18.2, "Tn14": 17.5, "Tn6": 18.8, "Tx12": 20.4, "Tx24": 20.4, "Tx6": 20.1, "W10": 0.0, "W10-10": 0.0, "dd": 260.9, "dn": 246.1, "dr": null, "dsd": 4.5, "dx": 278.4, "ff": 5.40046, "ffs": 6.49, "fsd": 0.55, "fx": null, "fxs": null, "gff": 6.74757, "gffs": 7.83, "h": 1054.92, "h1": 1054.92, "h2": 1304.92, "h3": 1744.92, "hc": 1054.92, "hc1": 1054.92, "hc2": 1304.92, "hc3": 1744.92, "n": 8.0, "n1": 5.0, "n2": 7.0, "n3": 8.0, "nc": 8.0, "nc1": 5.0, "nc2": 7.0, "nc3": 8.0, "nhc": 8.0, "p0": 1011.94, "pg": 0.0, "pp": 1017.08, "pr": 0.0, "ps": 1012.3, "pwc": 0.0, "qg": null, "qgn": null, "qgx": null, "qnh": 1017.15, "rg": null, "rh": 86.0, "sq": 0.0, "ss": null, "ta": 19.0, "tb": 17.4394, "tb1": null, "tb2": null, "tb3": null, "tb4": null, "tb5": null, "td": 16.7, "tg": null, "tgn": null, "tn": 19.0, "tsd": null, "tx": 19.1, "vv": 39500.0, "ww": 2.0, "ww-10": 2.0, "za": 2.0, "zm": 39500.0, "wsi": "0-528-0-06317", "stationname": "Borssele Alpha", "latitude": 51.7, "longitude": 3.0567, "height": 43.42, "product": "", "projection": "" }, "geometry": { "type": "Point", "coordinates": [ 3.0567, 51.7 ] } },
{ "type": "Feature", "properties": { "station": "06319", "source_filename": "KMDS__OPER_P___10M_OBS_L2_202609280140.nc", "observation_time": "2026-09-28T01:40:00Z", "D1H": 0.0, "Q1H": 0.0, "Q24H": 1200.6, "R12H": 0.0, "R1H": 0.0, "R24H": 0.0, "R6H": 0.0, "Sav1H": 2.297, "Sax1H": 2.86, "Sax3H": 2.86, "Sax6H": 2.86, "Sx1H": 4.18, "Sx3H": 4.18, "Sx6H": 4.18, "Tb1n6": null, "Tb1x6": null, "Tb2n6": null, "Tb2x6": null, "Tgn12": 14.0, "Tgn14": 14.0, "Tgn6": 14.0, "Tn12": 15.1, "Tn14": 15.1, "Tn6": 15.1, "Tx12": 23.1, "Tx24": 23.1, "Tx6": 19.3, "W10": 0.0, "W10-10": 0.0, "dd": 190.9, "dn": 163.1, "dr": 0.0, "dsd": 8.0, "dx": 209.5, "ff": 1.54, "ffs": 1.54, "fsd": 0.18, "fx": 2.43, "fxs": 2.43, "gff": 1.95, "gffs": 1.95, "h": null, "h1": null, "h2": null, "h3": null, "hc": null, "hc1": null, "hc2": null, "hc3": null, "n": null, "n1": null, "n2": null, "n3": null, "nc": null, "nc1": null, "nc2": null, "nc3": null, "nhc": null, "p0": 1017.57, "pg": 0.0, "pp": 1017.77, "pr": 0.0, "ps": 1017.4, "pwc": 0.0, "qg": 0.0, "qgn": 0.0, "qgx": 0.0, "qnh": 1017.77, "rg": 0.0, "rh": 86.0, "sq": 0.0, "ss": 0.0, "ta": 17.9, "tb": 16.3852, "tb1": null, "tb2": null, "tb3": null, "tb4": null, "tb5": null, "td": 15.6, "tg": 17.1, "tgn": 17.1, "tn": 17.9, "tsd": null, "tx": 18.0, "vv": 52900.0, "ww": 0.0, "ww-10": 0.0, "za": 2.0, "zm": 52900.0, "wsi": "0-20000-0-06319", "stationname": "Westdorpe", "latitude": 51.2247, "longitude": 3.8611, "height": 1.68, "product": "", "projection": "" }, "geometry": { "type": "Point", "coordinates": [ 3.8611, 51.2247 ] } },
{ "type": "Feature", "properties": { "station": "06273", "source_filename": "KMDS__OPER_P___10M_OBS_L2_202609280140.nc", "observation_time": "2026-09-28T01:40:00Z", "D1H": 0.0, "Q1H": 0.0, "Q24H": 1157.46, "R12H": 0.0, "R1H": 0.0, "R24H": 0.0, "R6H": 0.0, "Sav1H": 1.24217, "Sax1H": 1.42, "Sax3H": 3.09, "Sax6H": 3.09, "Sx1H": 2.29, "Sx3H": 4.58, "Sx6H": 4.58, "Tb1n6": 16.0, "Tb1x6": 17.0, "Tb2n6": 16.0, "Tb2x6": 16.7, "Tgn12": 10.6, "Tgn14": 10.6, "Tgn6": 10.6, "Tn12": 13.2, "Tn14": 13.2, "Tn6": 13.2, "Tx12": 21.5, "Tx24": 21.5, "Tx6": 17.3, "W10": 0.0, "W10-10": 0.0, "dd": 194.2, "dn": 164.5, "dr": 0.0, "dsd": 9.0, "dx": 215.2, "ff": 0.97, "ffs": 0.97, "fsd": 0.19, "fx": 2.29, "fxs": 2.29, "gff": 1.49, "gffs": 1.49, "h": null, "h1": null, "h2": null, "h3": null, "hc": null, "hc1": null, "hc2": null, "hc3": null, "n": null, "n1": null, "n2": null, "n3": null, "nc": null, "nc1": null, "nc2": null, "nc3": null, "nhc": null, "p0": null, "pg": 0.0, "pp": null, "pr": 0.0, "ps": null, "pwc": 0.0, "qg": 0.0, "qgn": 0.0, "qgx": 0.0, "qnh": null, "rg": 0.0, "rh": 88.0, "sq": 0.0, "ss": 0.0, "ta": 16.5, "tb": 15.2542, "tb1": 16.0, "tb2": 16.0, "tb3": 16.4, "tb4": 16.4, "tb5": 16.5, "td": 14.5, "tg": 15.3, "tgn": 15.3, "tn": 16.5, "tsd": null, "tx": 16.6, "vv": 20600.0, "ww": 0.0, "ww-10": 0.0, "za": 2.0, "zm": 20600.0, "wsi": "0-20000-0-06273", "stationname": "Marknesse", "latitude": 52.7019, "longitude": 5.8875, "height": -3.35, "product": "", "projection": "" }, "geometry": { "type": "Point", "coordinates": [ 5.8875, 52.7019 ] } },
{ "type": "Feature", "properties": { "station": "06323", "source_filename": "KMDS__OPER_P___10M_OBS_L2_202609280140.nc", "observation_time": "2026-09-28T01:40:00Z", "D1H": null, "Q1H": 0.0, "Q24H": 1244.52, "R12H": 0.0, "R1H": 0.0, "R24H": 0.0, "R6H": 0.0, "Sav1H": 2.1915, "Sax1H": 2.53, "Sax3H": 2.53, "Sax6H": 2.53, "Sx1H": 5.96, "Sx3H": 5.96, "Sx6H": 5.96, "Tb1n6": 17.3, "Tb1x6": 17.8, "Tb2n6": 17.5, "Tb2x6": 17.8, "Tgn12": 15.4, "Tgn14": 15.4, "Tgn6": 15.4, "Tn12": 16.6, "Tn14": 16.6, "Tn6": 16.6, "Tx12": 22.4, "Tx24": 22.4, "Tx6": 19.3, "W10": null, "W10-10": null, "dd": 228.6, "dn": 202.5, "dr": 0.0, "dsd": 9.1, "dx": 261.6, "ff": 2.53, "ffs": 2.53, "fsd": 0.57, "fx": 5.96, "fxs": 5.96, "gff": 5.96, "gffs": 5.96, "h": null, "h1": null, "h2": null, "h3": null, "hc": null, "hc1": null, "hc2": null, "hc3": null, "n": null, "n1": null, "n2": null, "n3": null, "nc": null, "nc1": null, "nc2": null, "nc3": null, "nhc": null, "p0": 1017.39, "pg": null, "pp": 1017.58, "pr": null, "ps": 1017.2, "pwc": null, "qg": 0.0, "qgn": 0.0, "qgx": 0.0, "qnh": 1017.59, "rg": 0.0, "rh": 83.0, "sq": 0.0, "ss": 0.0, "ta": 18.4, "tb": 16.5239, "tb1": 17.3, "tb2": 17.5, "tb3": 17.4, "tb4": 17.0, "tb5": 16.9, "td": 15.6, "tg": 17.8, "tgn": 17.7, "tn": 18.2, "tsd": null, "tx": 18.4, "vv": null, "ww": null, "ww-10": null, "za": null, "zm": null, "wsi": "0-20000-0-06323", "stationname": "Wilhelminadorp", "latitude": 51.5258, "longitude": 3.8836, "height": 1.65, "product": "", "projection": "" }, "geometry": { "type": "Point", "coordinates": [ 3.8836, 51.5258 ] } },
{ "type": "Feature", "properties": { "station": "06340", "source_filename": "KMDS__OPER_P___10M_OBS_L2_202609280140.nc", "observation_time": "2026-09-28T01:40:00Z", "D1H": 0.0, "Q1H": null, "Q24H": null, "R12H": 0.0, "R1H": 0.0, "R24H": 0.0, "R6H": 0.0, "Sav1H": 0.965667, "Sax1H": 1.42, "Sax3H": 1.42, "Sax6H": 1.42, "Sx1H": 2.1, "Sx3H": 2.1, "Sx6H": 2.1, "Tb1n6": null, "Tb1x6": null, "Tb2n6": null, "Tb2x6": null, "Tgn12": 12.5, "Tgn14": 12.5, "Tgn6": 12.5, "Tn12": 14.6, "Tn14": 14.6, "Tn6": 14.6, "Tx12": 22.9, "Tx24": 22.9, "Tx6": 16.9, "W10": 0.0, "W10-10": 0.0, "dd": 227.0, "dn": 196.9, "dr": 0.0, "dsd": 12.2, "dx": 260.2, "ff": 1.42, "ffs": 1.42, "fsd": 0.28, "fx": 2.1, "fxs": 2.1, "gff": 2.1, "gffs": 2.1, "h": 5834.92, "h1": 5834.92, "h2": 0.0, "h3": 0.0, "hc": 5834.92, "hc1": 5834.92, "hc2": 0.0, "hc3": 0.0, "n": 8.0, "n1": 8.0, "n2": 0.0, "n3": 0.0, "nc": 8.0, "nc1": 8.0, "nc2": 0.0, "nc3": 0.0, "nhc": 8.0, "p0": 1015.97, "pg": 0.0, "pp": 1017.75, "pr": 0.0, "ps": 1015.9, "pwc": 0.0, "qg": null, "qgn": null, "qgx": null, "qnh": 1017.78, "rg": 0.0, "rh": 87.0, "sq": 0.0, "ss": null, "ta": 16.9, "tb": 15.5347, "tb1": null, "tb2": null, "tb3": null, "tb4": null, "tb5": null, "td": 14.8, "tg": 15.7, "tgn": 15.5, "tn": 16.3, "tsd": null, "tx": 16.9, "vv": 29900.0, "ww": 2.0, "ww-10": 2.0, "za": 4.0, "zm": 29900.0, "wsi": "0-20000-0-06340", "stationname": "Woensdrecht Airport", "latitude": 51.4478, "longitude": 4.3419, "height": 15.04, "product": "", "projection": "" }, "geometry": { "type": "Point", "coordinates": [ 4.3419, 51.4478 ] } },
{ "type": "Feature", "properties": { "station": "06343", "source_filename": "KMDS__OPER_P___10M_OBS_L2_202609280140.nc", "observation_time": "2026-09-28T01:40:00Z", "D1H": null, "Q1H": null, "Q24H": null, "R12H": null, "R1H": null, "R24H": null, "R6H": null, "Sav1H": 4.43033, "Sax1H": 4.68, "Sax3H": 4.84, "Sax6H": 4.84, "Sx1H": 6.88, "Sx3H": 7.13, "Sx6H": 7.13, "Tb1n6": null, "Tb1x6": null, "Tb2n6": null, "Tb2x6": null, "Tgn12": null, "Tgn14": null, "Tgn6": null, "Tn12": null, "Tn14": null, "Tn6": null, "Tx12": null, "Tx24": null, "Tx6": null, "W10": null, "W10-10": null, "dd": 225.7, "dn": 187.0, "dr": null, "dsd": 9.1, "dx": 244.7, "ff": 4.55, "ffs": 4.55, "fsd": 0.82, "fx": 6.88, "fxs": 6.88, "gff": 6.88, "gffs": 6.88, "h": null, "h1": null, "h2": null, "h3": null, "hc": null, "hc1": null, "hc2": null, "hc3": null, "n": null, "n1": null, "n2": null, "n3": null, "nc": null, "nc1": null, "nc2": null, "nc3": null, "nhc": null, "p0": null, "pg": null, "pp": null, "pr": null, "ps": null, "pwc": null, "qg": null, "qgn": null, "qgx": null, "qnh": null, "rg": null, "rh": null, "sq": null, "ss": null, "ta": null, "tb": null, "tb1": null, "tb2": null, "tb3": null, "tb4": null, "tb5": null, "td": null, "tg": null, "tgn": null, "tn": null, "tsd": null, "tx": null, "vv": null, "ww": null, "ww-10": null, "za": null, "zm": null, "wsi": "0-20000-0-06343", "stationname": "Rotterdam Geulhaven", "latitude": 51.8919, "longitude": 4.3125, "height": 3.5, "product": "", "projection": "" }, "geometry": { "type": "Point", "coordinates": [ 4.3125, 51.8919 ] } },
{ "type": "Feature", "properties": { "station": "06344", "source_filename": "KMDS__OPER_P___10M_OBS_L2_202609280140.nc", "observation_time": "2026-09-28T01:40:00Z", "D1H": 0.0, "Q1H": 0.0, "Q24H": 1260.48, "R12H": 0.0, "R1H": 0.0, "R24H": 0.0, "R6H": 0.0, "Sav1H": 2.70967, "Sax1H": 3.23, "Sax3H": 3.23, "Sax6H": 3.23, "Sx1H": 4.68, "Sx3H": 4.68, "Sx6H": 5.38, "Tb1n6": null, "Tb1x6": null, "Tb2n6": null, "Tb2x6": null, "Tgn12": 12.3, "Tgn14": 12.3, "Tgn6": 13.9, "Tn12": 15.7, "Tn14": 15.7, "Tn6": 17.3, "Tx12": 21.5, "Tx24": 21.5, "Tx6": 19.3, "W10": 0.0, "W10-10": 0.0, "dd": 219.2, "dn": null, "dr": 0.0, "dsd": 7.6, "dx": null, "ff": 2.18, "ffs": 2.18, "fsd": 0.33, "fx": 4.47, "fxs": 4.47, "gff": 3.03, "gffs": 3.03, "h": 5574.92, "h1": 5574.92, "h2": 0.0, "h3": 0.0, "hc": 5574.92, "hc1": 5574.92, "hc2": 0.0, "hc3": 0.0, "n": 8.0, "n1": 8.0, "n2": 0.0, "n3": 0.0, "nc": 8.0, "nc1": 8.0, "nc2": 0.0, "nc3": 0.0, "nhc": 8.0, "p0": 1017.87, "pg": 0.0, "pp": 1017.26, "pr": 0.0, "ps": 1017.8, "pwc": 0.0, "qg": 0.0, "qgn": 0.0, "qgx": 0.0, "qnh": 1017.26, "rg": 0.0, "rh": 85.0, "sq": 0.0, "ss": 0.0, "ta": 18.3, "tb": 16.6557, "tb1": null, "tb2": null, "tb3": null, "tb4": null, "tb5": null, "td": 15.9, "tg": 16.9, "tgn": 16.9, "tn": 18.3, "tsd": null, "tx": 18.4, "vv": 28700.0, "ww": 2.0, "ww-10": 2.0, "za": 4.59, "zm": 28700.0, "wsi": "0-20000-0-06344", "stationname": "Rotterdam Airport", "latitude": 51.9606, "longitude": 4.4469, "height": -5.14, "product": "", "projection": "" }, "geometry": { "type": "Point", "coordinates": [ 4.4469, 51.9606 ] } },
{ "type": "Feature", "properties": { "station": "06348", "source_filename": "KMDS__OPER_P___10M_OBS_L2_202609280140.nc", "observation_time": "2026-09-28T01:40:00Z", "D1H": 0.0, "Q1H": 0.0, "Q24H": 1238.46, "R12H": 0.0, "R1H": 0.0, "R24H": 0.0, "R6H": 0.0, "Sav1H": 1.17867, "Sax1H": 1.42, "Sax3H": 1.48, "Sax6H": 3.33, "Sx1H": 1.84, "Sx3H": 1.84, "Sx6H": 3.84, "Tb1n6": null, "Tb1x6": null, "Tb2n6": null, "Tb2x6": null, "Tgn12": 11.8, "Tgn14": 11.8, "Tgn6": 13.6, "Tn12": 15.2, "Tn14": 15.2, "Tn6": 15.7, "Tx12": 22.0, "Tx24": 22.0, "Tx6": 17.7, "W10": 0.0, "W10-10": 1.0, "dd": 177.6, "dn": 149.1, "dr": 0.0, "dsd": 11.8, "dx": 201.1, "ff": 1.01, "ffs": 1.01, "fsd": 0.23, "fx": 1.59, "fxs": 1.59, "gff": 1.59, "gffs": 1.59, "h": null, "h1": null, "h2": null, "h3": null, "hc": null, "hc1": null, "hc2": null, "hc3": null, "n": null, "n1": null, "n2": null, "n3": null, "nc": null, "nc1": null, "nc2": null, "nc3": null, "nhc": null, "p0": 1017.59, "pg": 0.0, "pp": 1017.5, "pr": 0.0, "ps": 1017.3, "pwc": 0.0, "qg": 0.0, "qgn": 0.0, "qgx": 0.0, "qnh": 1017.5, "rg": 0.0, "rh": 90.0, "sq": 0.0, "ss": 0.0, "ta": 16.7, "tb": 15.6615, "tb1": null, "tb2": null, "tb3": null, "tb4": null, "tb5": null, "td": 15.1, "tg": 15.8, "tgn": 15.8, "tn": 16.6, "tsd": 0.0, "tx": 16.7, "vv": null, "ww": 0.0, "ww-10": 10.0, "za": null, "zm": 12900.0, "wsi": "0-20000-0-06348", "stationname": "Cabauw", "latitude": 51.9692, "longitude": 4.9258, "height": -0.71, "product": "", "projection": "" }, "geometry": { "type": "Point", "coordinates": [ 4.9258, 51.9692 ] } },
{ "type": "Feature", "properties": { "station": "06350", "source_filename": "KMDS__OPER_P___10M_OBS_L2_202609280140.nc", "observation_time": "2026-09-28T01:40:00Z", "D1H": 0.0, "Q1H": 0.0, "Q24H": 1217.16, "R12H": 0.0, "R1H": 0.0, "R24H": 0.0, "R6H": 0.0, "Sav1H": 1.11233, "Sax1H": 1.67, "Sax3H": 1.67, "Sax6H": 1.75, "Sx1H": 2.74, "Sx3H": 2.74, "Sx6H": 2.74, "Tb1n6": null, "Tb1x6": null, "Tb2n6": null, "Tb2x6": null, "Tgn12": 11.7, "Tgn14": 11.7, "Tgn6": 11.7, "Tn12": 13.2, "Tn14": 13.2, "Tn6": 13.2, "Tx12": 23.0, "Tx24": 23.0, "Tx6": 17.1, "W10": 0.0, "W10-10": 0.0, "dd": 266.3, "dn": 241.9, "dr": 0.0, "dsd": 9.0, "dx": 296.7, "ff": 1.67, "ffs": 1.67, "fsd": 0.22, "fx": 2.74, "fxs": 2.74, "gff": 2.74, "gffs": 2.74, "h": 6324.92, "h1": 6324.92, "h2": 0.0, "h3": 0.0, "hc": 6324.92, "hc1": 6324.92, "hc2": 0.0, "hc3": 0.0, "n": 8.0, "n1": 8.0, "n2": 0.0, "n3": 0.0, "nc": 8.0, "nc1": 8.0, "nc2": 0.0, "nc3": 0.0, "nhc": 8.0, "p0": 1016.39, "pg": 0.0, "pp": 1017.81, "pr": 0.0, "ps": 1016.3, "pwc": 0.0, "qg": 0.0, "qgn": 0.0, "qgx": 0.0, "qnh": 1017.82, "rg": 0.0, "rh": 91.0, "sq": 0.0, "ss": 0.0, "ta": 15.3, "tb": 14.404, "tb1": null, "tb2": null, "tb3": null, "tb4": null, "tb5": null, "td": 13.9, "tg": 14.6, "tgn": 14.5, "tn": 15.1, "tsd": null, "tx": 15.3, "vv": 22400.0, "ww": 2.0, "ww-10": 2.0, "za": 2.0, "zm": 22400.0, "wsi": "0-20000-0-06350", "stationname": "Gilze-Rijen Airport", "latitude": 51.565, "longitude": 4.9353, "height": 11.95, "product": "", "projection": "" }, "geometry": { "type": "Point", "coordinates": [ 4.9353, 51.565 ] } },
{ "type": "Feature", "properties": { "station": "06356", "source_filename": "KMDS__OPER_P___10M_OBS_L2_202609280140.nc", "observation_time": "2026-09-28T01:40:00Z", "D1H": 0.0, "Q1H": 0.06, "Q24H": 1313.1, "R12H": 0.0, "R1H": 0.0, "R24H": 0.0, "R6H": 0.0, "Sav1H": 0.7075, "Sax1H": 0.84, "Sax3H": 1.68, "Sax6H": 2.23, "Sx1H": 1.34, "Sx3H": 2.17, "Sx6H": 2.89, "Tb1n6": null, "Tb1x6": null, "Tb2n6": null, "Tb2x6": null, "Tgn12": 11.9, "Tgn14": 11.9, "Tgn6": 12.2, "Tn12": 13.9, "Tn14": 13.9, "Tn6": 13.9, "Tx12": 22.7, "Tx24": 22.7, "Tx6": 16.1, "W10": null, "W10-10": null, "dd": 195.7, "dn": 178.6, "dr": 0.0, "dsd": 9.4, "dx": 205.3, "ff": 0.59, "ffs": 0.59, "fsd": 0.08, "fx": 0.91, "fxs": 0.91, "gff": 0.91, "gffs": 0.91, "h": null, "h1": null, "h2": null, "h3": null, "hc": null, "hc1": null, "hc2": null, "hc3": null, "n": null, "n1": null, "n2": null, "n3": null, "nc": null, "nc1": null, "nc2": null, "nc3": null, "nhc": null, "p0": 1017.63, "pg": null, "pp": 1017.71, "pr": null, "ps": 1017.4, "pwc": null, "qg": 1.0, "qgn": 0.0, "qgx": 1.0, "qnh": 1017.71, "rg": 0.0, "rh": 94.0, "sq": 0.0, "ss": 0.0, "ta": 15.4, "tb": 14.804, "tb1": null, "tb2": null, "tb3": null, "tb4": null, "tb5": null, "td": 14.4, "tg": 14.7, "tgn": 14.6, "tn": 15.2, "tsd": null, "tx": 15.4, "vv": null, "ww": null, "ww-10": null, "za": null, "zm": null, "wsi": "0-20000-0-06356", "stationname": "Herwijnen", "latitude": 51.8578, "longitude": 5.1453, "height": 0.66, "product": "", "projection": "" }, "geometry": { "type": "Point", "coordinates": [ 5.1453, 51.8578 ] } },
{ "type": "Feature", "properties": { "station": "06370", "source_filename": "KMDS__OPER_P___10M_OBS_L2_202609280140.nc", "observation_time": "2026-09-28T01:40:00Z", "D1H": 0.0, "Q1H": 0.0, "Q24H": 1292.04, "R12H": 0.0, "R1H": 0.0, "R24H": 0.0, "R6H": 0.0, "Sav1H": 0.5595, "Sax1H": 1.32, "Sax3H": 1.5, "Sax6H": 1.5, "Sx1H": 1.81, "Sx3H": 1.81, "Sx6H": 2.18, "Tb1n6": null, "Tb1x6": null, "Tb2n6": null, "Tb2x6": null, "Tgn12": 10.3, "Tgn14": 10.3, "Tgn6": 10.3, "Tn12": 12.6, "Tn14": 12.6, "Tn6": 12.6, "Tx12": 23.6, "Tx24": 23.6, "Tx6": 15.1, "W10": 0.0, "W10-10": 0.0, "dd": 216.5, "dn": 215.2, "dr": 0.0, "dsd": 2.5, "dx": 216.6, "ff": 0.22, "ffs": 0.22, "fsd": 0.1, "fx": 0.63, "fxs": 0.63, "gff": 0.47, "gffs": 0.47, "h": 28934.9, "h1": 28934.9, "h2": 0.0, "h3": 0.0, "hc": 28934.9, "hc1": 28934.9, "hc2": 0.0, "hc3": 0.0, "n": 8.0, "n1": 8.0, "n2": 0.0, "n3": 0.0, "nc": 8.0, "nc1": 8.0, "nc2": 0.0, "nc3": 0.0, "nhc": 0.0, "p0": 1015.48, "pg": 0.0, "pp": 1017.8, "pr": 0.0, "ps": 1015.4, "pwc": 0.0, "qg": 0.0, "qgn": 0.0, "qgx": 0.0, "qnh": 1017.82, "rg": 0.0, "rh": 97.0, "sq": 0.0, "ss": 0.0, "ta": 12.9, "tb": 12.6251, "tb1": null, "tb2": null, "tb3": null, "tb4": null, "tb5": null, "td": 12.5, "tg": 10.3, "tgn": 10.3, "tn": 12.6, "tsd": null, "tx": 12.9, "vv": 31600.0, "ww": 2.0, "ww-10": 2.0, "za": 2.0, "zm": 31600.0, "wsi": "0-20000-0-06370", "stationname": "Eindhoven Airport", "latitude": 51.4631, "longitude": 5.3856, "height": 19.54, "product": "", "projection": "" }, "geometry": { "type": "Point", "coordinates": [ 5.3856, 51.4631 ] } },
{ "type": "Feature", "properties": { "station": "06375", "source_filename": "KMDS__OPER_P___10M_OBS_L2_202609280140.nc", "observation_time": "2026-09-28T01:40:00Z", "D1H": 0.0, "Q1H": 0.0, "Q24H": 1315.5, "R12H": 0.0, "R1H": 0.0, "R24H": 0.0, "R6H": 0.0, "Sav1H": 0.436167, "Sax1H": 0.76, "Sax3H": 0.76, "Sax6H": 0.88, "Sx1H": 0.96, "Sx3H": 1.32, "Sx6H": 1.32, "Tb1n6": null, "Tb1x6": null, "Tb2n6": null, "Tb2x6": null, "Tgn12": 10.3, "Tgn14": 10.3, "Tgn6": 10.3, "Tn12": 13.1, "Tn14": 13.1, "Tn6": 13.1, "Tx12": 23.3, "Tx24": 23.4, "Tx6": 15.6, "W10": 0.0, "W10-10": 0.0, "dd": 175.8, "dn": 175.8, "dr": 0.0, "dsd": 0.0, "dx": 175.8, "ff": 0.76, "ffs": 0.76, "fsd": 0.1, "fx": 0.96, "fxs": 0.96, "gff": 0.96, "gffs": 0.96, "h": 25984.9, "h1": 25984.9, "h2": 32764.9, "h3": 0.0, "hc": 25984.9, "hc1": 25984.9, "hc2": 32764.9, "hc3": 0.0, "n": 8.0, "n1": 6.0, "n2": 8.0, "n3": 0.0, "nc": 8.0, "nc1": 6.0, "nc2": 8.0, "nc3": 0.0, "nhc": 0.0, "p0": 1015.39, "pg": 0.0, "pp": 1017.76, "pr": 0.0, "ps": 1015.2, "pwc": 0.0, "qg": 0.0, "qgn": 0.0, "qgx": 0.0, "qnh": 1017.78, "rg": 0.0, "rh": 96.0, "sq": 0.0, "ss": 0.0, "ta": 13.3, "tb": 12.9283, "tb1": null, "tb2": null, "tb3": null, "tb4": null, "tb5": null, "td": 12.9, "tg": 10.3, "tgn": 10.3, "tn": 13.1, "tsd": null, "tx": 13.3, "vv": 10900.0, "ww": 2.0, "ww-10": 2.0, "za": 2.0, "zm": 10900.0, "wsi": "0-20000-0-06375", "stationname": "Volkel Airport", "latitude": 51.6586, "longitude": 5.7067, "height": 19.85, "product": "", "projection": "" }, "geometry": { "type": "Point", "coordinates": [ 5.7067, 51.6586 ] } },
{ "type": "Feature", "properties": { "station": "06380", "source_filename": "KMDS__OPER_P___10M_OBS_L2_202609280140.nc", "observation_time": "2026-09-28T01:40:00Z", "D1H": 0.0, "Q1H": 0.0, "Q24H": 1395.9, "R12H": 0.0, "R1H": 0.0, "R24H": 0.0, "R6H": 0.0, "Sav1H": 2.66083, "Sax1H": 2.78, "Sax3H": 2.78, "Sax6H": 2.78, "Sx1H": 3.56, "Sx3H": 3.89, "Sx6H": 3.89, "Tb1n6": null, "Tb1x6": null, "Tb2n6": null, "Tb2x6": null, "Tgn12": 12.6, "Tgn14": 12.6, "Tgn6": 12.6, "Tn12": 17.2, "Tn14": 17.2, "Tn6": 17.2, "Tx12": 25.0, "Tx24": 25.0, "Tx6": 19.2, "W10": 0.0, "W10-10": 0.0, "dd": 176.3, "dn": null, "dr": 0.0, "dsd": 5.0, "dx": null, "ff": 2.57, "ffs": 2.57, "fsd": 0.18, "fx": 3.11, "fxs": 3.11, "gff": 3.07, "gffs": 3.07, "h": 21014.9, "h1": 21014.9, "h2": 26044.9, "h3": 0.0, "hc": 21014.9, "hc1": 21014.9, "hc2": 26044.9, "hc3": 0.0, "n": 8.0, "n1": 6.0, "n2": 8.0, "n3": 0.0, "nc": 8.0, "nc1": 6.0, "nc2": 8.0, "nc3": 0.0, "nhc": 0.0, "p0": 1004.68, "pg": 0.0, "pp": 1017.84, "pr": 0.0, "ps": 1004.5, "pwc": 0.0, "qg": 0.0, "qgn": 0.0, "qgx": 0.0, "qnh": 1018.22, "rg": 0.0, "rh": 75.0, "sq": 0.0, "ss": 0.0, "ta": 17.2, "tb": 14.4892, "tb1": null, "tb2": null, "tb3": null, "tb4": null, "tb5": null, "td": 12.8, "tg": 15.1, "tgn": 15.1, "tn": 17.2, "tsd": null, "tx": 17.5, "vv": 99500.0, "ww": 2.0, "ww-10": 2.0, "za": 2.0, "zm": 99500.0, "wsi": "0-20000-0-06380", "stationname": "Maastricht Airport", "latitude": 50.9053, "longitude": 5.7619, "height": 112.72, "product": "", "projection": "" }, "geometry": { "type": "Point", "coordinates": [ 5.7619, 50.9053 ] } },
{ "type": "Feature", "properties": { "station": "06392", "source_filename": "KMDS__OPER_P___10M_OBS_L2_202609280140.nc", "observation_time": "2026-09-28T01:40:00Z", "D1H": 0.0, "Q1H": 0.0, "Q24H": 1286.7, "R12H": 0.0, "R1H": 0.0, "R24H": 0.0, "R6H": 0.0, "Sav1H": 0.579667, "Sax1H": 0.76, "Sax3H": 0.86, "Sax6H": 0.92, "Sx1H": 0.94, "Sx3H": 1.17, "Sx6H": 1.17, "Tb1n6": null, "Tb1x6": null, "Tb2n6": null, "Tb2x6": null, "Tgn12": 10.6, "Tgn14": 10.6, "Tgn6": 10.6, "Tn12": 12.4, "Tn14": 12.4, "Tn6": 12.4, "Tx12": 24.0, "Tx24": 24.0, "Tx6": 14.8, "W10": null, "W10-10": null, "dd": 130.8, "dn": 130.8, "dr": 0.0, "dsd": 0.0, "dx": 130.8, "ff": 0.51, "ffs": 0.51, "fsd": 0.08, "fx": 0.88, "fxs": 0.88, "gff": 0.88, "gffs": 0.88, "h": null, "h1": null, "h2": null, "h3": null, "hc": null, "hc1": null, "hc2": null, "hc3": null, "n": null, "n1": null, "n2": null, "n3": null, "nc": null, "nc1": null, "nc2": null, "nc3": null, "nhc": null, "p0": null, "pg": null, "pp": null, "pr": null, "ps": null, "pwc": null, "qg": 0.0, "qgn": 0.0, "qgx": 0.0, "qnh": null, "rg": 0.0, "rh": 99.0, "sq": 0.0, "ss": 0.0, "ta": 12.9, "tb": 12.8085, "tb1": null, "tb2": null, "tb3": null, "tb4": null, "tb5": null, "td": 12.8, "tg": 11.1, "tgn": 11.1, "tn": 12.8, "tsd": null, "tx": 12.9, "vv": null, "ww": null, "ww-10": null, "za": null, "zm": null, "wsi": "0-528-0-06392", "stationname": "Horst", "latitude": 51.4869, "longitude": 6.0561, "height": 21.88, "product": "", "projection": "" }, "geometry": { "type": "Point", "coordinates": [ 6.0561, 51.4869 ] } },
{ "type": "Feature", "properties": { "station": "78871", "source_filename": "KMDS__OPER_P___10M_OBS_L2_202609280140.nc", "observation_time": "2026-09-28T01:40:00Z", "D1H": 0.0, "Q1H": 0.0, "Q24H": 2233.68, "R12H": 0.284333, "R1H": 0.0, "R24H": 0.284333, "R6H": 0.0, "Sav1H": 7.39867, "Sax1H": 7.75, "Sax3H": 7.75, "Sax6H": 7.75, "Sx1H": 9.42, "Sx3H": 9.73, "Sx6H": 9.73, "Tb1n6": null, "Tb1x6": null, "Tb2n6": null, "Tb2x6": null, "Tgn12": 28.3, "Tgn14": 28.3, "Tgn6": 28.3, "Tn12": 28.7, "Tn14": 28.7, "Tn6": 28.7, "Tx12": 33.0, "Tx24": 33.0, "Tx6": 31.3, "W10": null, "W10-10": null, "dd": 107.5, "dn": 78.8, "dr": 0.0, "dsd": 6.7, "dx": 126.6, "ff": 6.9, "ffs": 6.9, "fsd": 0.82, "fx": 8.76, "fxs": 8.76, "gff": 8.7, "gffs": 8.7, "h": null, "h1": null, "h2": null, "h3": null, "hc": null, "hc1": null, "hc2": null, "hc3": null, "n": null, "n1": null, "n2": null, "n3": null, "nc": null, "nc1": null, "nc2": null, "nc3": null, "nhc": null, "p0": 1012.31, "pg": null, "pp": 1015.85, "pr": null, "ps": 1012.1, "pwc": null, "qg": 0.0, "qgn": 0.0, "qgx": 0.0, "qnh": 1016.04, "rg": 0.0, "rh": 81.0, "sq": 0.0, "ss": 0.0, "ta": 28.8, "tb": 26.1137, "tb1": null, "tb2": null, "tb3": null, "tb4": null, "tb5": null, "td": 25.2, "tg": 28.5, "tgn": 28.3, "tn": 28.8, "tsd": null, "tx": 28.9, "vv": null, "ww": null, "ww-10": null, "za": null, "zm": null, "wsi": "0-20000-0-78871", "stationname": "Saba Airport", "latitude": 17.6461, "longitude": -63.2208, "height": 31.0, "product": "", "projection": "" }, "geometry": { "type": "Point", "coordinates": [ -63.2208, 17.6461 ] } },
{ "type": "Feature", "properties": { "station": "06330", "source_filename": "KMDS__OPER_P___10M_OBS_L2_202609280140.nc", "observation_time": "2026-09-28T01:40:00Z", "D1H": 0.0, "Q1H": 0.0, "Q24H": 1195.08, "R12H": 0.0, "R1H": 0.0, "R24H": 0.0, "R6H": 0.0, "Sav1H": 4.01833, "Sax1H": 3.89, "Sax3H": 5.19, "Sax6H": 5.19, "Sx1H": 5.75, "Sx3H": 6.8, "Sx6H": 6.8, "Tb1n6": null, "Tb1x6": null, "Tb2n6": null, "Tb2x6": null, "Tgn12": 17.1, "Tgn14": 17.1, "Tgn6": 17.1, "Tn12": 17.9, "Tn14": 17.9, "Tn6": 17.9, "Tx12": 21.9, "Tx24": 21.9, "Tx6": 20.0, "W10": null, "W10-10": null, "dd": 212.0, "dn": 191.3, "dr": 0.0, "dsd": 8.9, "dx": 237.7, "ff": 3.89, "ffs": 3.89, "fsd": 0.49, "fx": 4.88, "fxs": 4.88, "gff": 4.88, "gffs": 4.88, "h": null, "h1": null, "h2": null, "h3": null, "hc": null, "hc1": null, "hc2": null, "hc3": null, "n": null, "n1": null, "n2": null, "n3": null, "nc": null, "nc1": null, "nc2": null, "nc3": null, "nhc": null, "p0": 1015.87, "pg": null, "pp": 1017.28, "pr": null, "ps": 1015.7, "pwc": null, "qg": 0.0, "qgn": 0.0, "qgx": 0.0, "qnh": 1017.3, "rg": 0.0, "rh": 85.0, "sq": 0.0, "ss": 0.0, "ta": 18.2, "tb": 16.5601, "tb1": null, "tb2": null, "tb3": null, "tb4": null, "tb5": null, "td": 15.8, "tg": 17.6, "tgn": 17.5, "tn": 18.2, "tsd": null, "tx": 18.3, "vv": null, "ww": null, "ww-10": null, "za": null, "zm": null, "wsi": "0-20000-0-06330", "stationname": "Hoek van Holland", "latitude": 51.9911, "longitude": 4.1217, "height": 11.86, "product": "", "projection": "" }, "geometry": { "type": "Point", "coordinates": [ 4.1217, 51.9911 ] } },
{ "type": "Feature", "properties": { "station": "78873", "source_filename": "KMDS__OPER_P___10M_OBS_L2_202609280140.nc", "observation_time": "2026-09-28T01:40:00Z", "D1H": 0.0, "Q1H": 0.0, "Q24H": 2179.2, "R12H": 0.0, "R1H": 0.0, "R24H": 0.296, "R6H": 0.0, "Sav1H": 5.1315, "Sax1H": 5.91, "Sax3H": 5.91, "Sax6H": 6.24, "Sx1H": 8.1, "Sx3H": 8.45, "Sx6H": 8.45, "Tb1n6": null, "Tb1x6": null, "Tb2n6": null, "Tb2x6": null, "Tgn12": 26.8, "Tgn14": 26.8, "Tgn6": 26.8, "Tn12": 28.1, "Tn14": 28.1, "Tn6": 28.1, "Tx12": 32.5, "Tx24": 32.5, "Tx6": 31.4, "W10": null, "W10-10": null, "dd": 97.0, "dn": 73.1, "dr": 0.0, "dsd": 8.4, "dx": 128.0, "ff": 4.37, "ffs": 4.37, "fsd": 1.03, "fx": 7.71, "fxs": 7.71, "gff": 7.71, "gffs": 7.71, "h": null, "h1": null, "h2": null, "h3": null, "hc": null, "hc1": null, "hc2": null, "hc3": null, "n": null, "n1": null, "n2": null, "n3": null, "nc": null, "nc1": null, "nc2": null, "nc3": null, "nhc": null, "p0": 1012.18, "pg": null, "pp": 1016.3, "pr": null, "ps": 1012.1, "pwc": null, "qg": 0.0, "qgn": 0.0, "qgx": 0.0, "qnh": 1016.51, "rg": 0.0, "rh": 80.0, "sq": 0.0, "ss": 0.0, "ta": 28.1, "tb": 25.3043, "tb1": null, "tb2": null, "tb3": null, "tb4": null, "tb5": null, "td": 24.4, "tg": 26.9, "tgn": 26.9, "tn": 28.1, "tsd": null, "tx": 28.4, "vv": null, "ww": null, "ww-10": null, "za": null, "zm": null, "wsi": "0-20000-0-78873", "stationname": "Sint Eustatius Airport", "latitude": 17.4956, "longitude": -62.9828, "height": 36.02, "product": "", "projection": "" }, "geometry": { "type": "Point", "coordinates": [ -62.9828, 17.4956 ] } },
{ "type": "Feature", "properties": { "station": "06270", "source_filename": "KMDS__OPER_P___10M_OBS_L2_202609280140.nc", "observation_time": "2026-09-28T01:40:00Z", "D1H": 0.0, "Q1H": 0.0, "Q24H": 1101.66, "R12H": 0.0, "R1H": 0.0, "R24H": 0.0, "R6H": 0.0, "Sav1H": 1.39467, "Sax1H": 2.04, "Sax3H": 4.08, "Sax6H": 4.08, "Sx1H": 2.51, "Sx3H": 5.81, "Sx6H": 5.81, "Tb1n6": null, "Tb1x6": null, "Tb2n6": null, "Tb2x6": null, "Tgn12": 10.9, "Tgn14": 10.9, "Tgn6": 10.9, "Tn12": 14.5, "Tn14": 14.5, "Tn6": 14.5, "Tx12": 20.3, "Tx24": 20.3, "Tx6": 17.3, "W10": 1.0, "W10-10": 0.0, "dd": 148.0, "dn": 116.7, "dr": 0.0, "dsd": 18.1, "dx": 182.8, "ff": 1.15, "ffs": 1.15, "fsd": 0.18, "fx": 2.33, "fxs": 2.33, "gff": 1.71, "gffs": 1.71, "h": 4664.92, "h1": 4664.92, "h2": 5204.92, "h3": 0.0, "hc": 4664.92, "hc1": 4664.92, "hc2": 5204.92, "hc3": 0.0, "n": 8.0, "n1": 1.0, "n2": 8.0, "n3": 0.0, "nc": 8.0, "nc1": 1.0, "nc2": 8.0, "nc3": 0.0, "nhc": 8.0, "p0": 1016.68, "pg": 0.0, "pp": 1016.71, "pr": 0.0, "ps": 1016.5, "pwc": 0.0, "qg": 0.0, "qgn": 0.0, "qgx": 0.0, "qnh": 1016.71, "rg": 0.0, "rh": 94.0, "sq": 0.0, "ss": 0.0, "ta": 16.3, "tb": 15.6883, "tb1": null, "tb2": null, "tb3": null, "tb4": null, "tb5": null, "td": 15.3, "tg": 15.2, "tgn": 15.2, "tn": 16.3, "tsd": null, "tx": 16.3, "vv": 5770.0, "ww": 10.0, "ww-10": 23.0, "za": 2.0, "zm": 5770.0, "wsi": "0-20000-0-06270", "stationname": "Leeuwarden Airport", "latitude": 53.2231, "longitude": 5.7517, "height": 0.27, "product": "", "projection": "" }, "geometry": { "type": "Point", "coordinates": [ 5.7517, 53.2231 ] } },
{ "type": "Feature", "properties": { "station": "06267", "source_filename": "KMDS__OPER_P___10M_OBS_L2_202609280140.nc", "observation_time": "2026-09-28T01:40:00Z", "D1H": 2.6, "Q1H": 0.0, "Q24H": 1118.82, "R12H": 0.0, "R1H": 0.0, "R24H": 0.0, "R6H": 0.0, "Sav1H": 2.83233, "Sax1H": 3.32, "Sax3H": 5.46, "Sax6H": 5.46, "Sx1H": 4.1, "Sx3H": 7.32, "Sx6H": 7.32, "Tb1n6": null, "Tb1x6": null, "Tb2n6": null, "Tb2x6": null, "Tgn12": 11.5, "Tgn14": 11.5, "Tgn6": 11.5, "Tn12": 13.0, "Tn14": 13.0, "Tn6": 13.0, "Tx12": 19.1, "Tx24": 19.1, "Tx6": 18.2, "W10": 8.0, "W10-10": 0.0, "dd": 188.0, "dn": 165.9, "dr": 0.0, "dsd": 6.3, "dx": 208.1, "ff": 2.82, "ffs": 2.82, "fsd": 0.26, "fx": 4.1, "fxs": 4.1, "gff": 3.54, "gffs": 3.54, "h": 2034.92, "h1": 2034.92, "h2": 2994.92, "h3": 4364.92, "hc": 2034.92, "hc1": 2034.92, "hc2": 2994.92, "hc3": 4364.92, "n": 8.0, "n1": 1.0, "n2": 3.0, "n3": 6.0, "nc": 8.0, "nc1": 1.0, "nc2": 3.0, "nc3": 6.0, "nhc": 8.0, "p0": null, "pg": 0.003, "pp": null, "pr": 12.0, "ps": null, "pwc": 60.0, "qg": 0.0, "qgn": 0.0, "qgx": 0.0, "qnh": null, "rg": 0.0, "rh": 90.0, "sq": 0.0, "ss": 0.0, "ta": 17.2, "tb": 16.1453, "tb1": null, "tb2": null, "tb3": null, "tb4": null, "tb5": null, "td": 15.7, "tg": 16.6, "tgn": 16.5, "tn": 17.2, "tsd": null, "tx": 17.3, "vv": null, "ww": 81.0, "ww-10": 23.0, "za": null, "zm": 8710.0, "wsi": "0-20000-0-06267", "stationname": "Stavoren", "latitude": 52.8967, "longitude": 5.3833, "height": -1.3, "product": "", "projection": "" }, "geometry": { "type": "Point", "coordinates": [ 5.3833, 52.8967 ] } },
{ "type": "Feature", "properties": { "station": "06204", "source_filename": "KMDS__OPER_P___10M_OBS_L2_202609280140.nc", "observation_time": "2026-09-28T01:40:00Z", "D1H": null, "Q1H": null, "Q24H": null, "R12H": null, "R1H": null, "R24H": null, "R6H": null, "Sav1H": 7.00105, "Sax1H": 7.6715, "Sax3H": 9.68689, "Sax6H": 10.7271, "Sx1H": 9.65097, "Sx3H": 11.8144, "Sx6H": 13.1243, "Tb1n6": null, "Tb1x6": null, "Tb2n6": null, "Tb2x6": null, "Tgn12": null, "Tgn14": null, "Tgn6": null, "Tn12": 17.4, "Tn14": 16.4, "Tn6": 17.8, "Tx12": 18.8, "Tx24": 18.8, "Tx6": 18.8, "W10": 0.0, "W10-10": 0.0, "dd": 282.8, "dn": 260.2, "dr": null, "dsd": 7.7, "dx": 322.0, "ff": 6.33061, "ffs": 7.79, "fsd": 0.55, "fx": null, "fxs": null, "gff": 7.74951, "gffs": 9.17, "h": 734.921, "h1": 734.921, "h2": 1064.92, "h3": 2314.92, "hc": 734.921, "hc1": 734.921, "hc2": 1064.92, "hc3": 2314.92, "n": 8.0, "n1": 2.0, "n2": 3.0, "n3": 6.0, "nc": 8.0, "nc1": 2.0, "nc2": 3.0, "nc3": 6.0, "nhc": 8.0, "p0": 1010.91, "pg": 0.0, "pp": 1015.87, "pr": 0.0, "ps": 1012.5, "pwc": 0.0, "qg": null, "qgn": null, "qgx": null, "qnh": 1015.93, "rg": null, "rh": 84.0, "sq": 0.0, "ss": null, "ta": 18.1, "tb": 16.3512, "tb1": null, "tb2": null, "tb3": null, "tb4": null, "tb5": null, "td": 15.5, "tg": null, "tgn": null, "tn": 18.1, "tsd": null, "tx": 18.2, "vv": 17700.0, "ww": 2.0, "ww-10": 2.0, "za": 9.22, "zm": 17700.0, "wsi": "0-20000-0-06204", "stationname": "K14-FA-1C", "latitude": 53.2694, "longitude": 3.6278, "height": 41.8, "product": "", "projection": "" }, "geometry": { "type": "Point", "coordinates": [ 3.6278, 53.2694 ] } },
{ "type": "Feature", "properties": { "station": "06205", "source_filename": "KMDS__OPER_P___10M_OBS_L2_202609280140.nc", "observation_time": "2026-09-28T01:40:00Z", "D1H": null, "Q1H": null, "Q24H": null, "R12H": null, "R1H": null, "R24H": null, "R6H": null, "Sav1H": 7.34421, "Sax1H": 7.75562, "Sax3H": 10.8495, "Sax6H": 10.8662, "Sx1H": 9.35826, "Sx3H": 13.5798, "Sx6H": 14.9007, "Tb1n6": null, "Tb1x6": null, "Tb2n6": null, "Tb2x6": null, "Tgn12": null, "Tgn14": null, "Tgn6": null, "Tn12": 15.0, "Tn14": 15.0, "Tn6": 15.0, "Tx12": 17.5, "Tx24": 17.5, "Tx6": 17.5, "W10": 0.0, "W10-10": 0.0, "dd": 327.0, "dn": 316.4, "dr": null, "dsd": 4.9, "dx": 355.8, "ff": 7.4971, "ffs": 8.99, "fsd": 0.53, "fx": null, "fxs": null, "gff": 8.77121, "gffs": 10.16, "h": 1544.92, "h1": 1544.92, "h2": 37834.9, "h3": 0.0, "hc": 1544.92, "hc1": 1544.92, "hc2": 37834.9, "hc3": 0.0, "n": 8.0, "n1": 3.0, "n2": 8.0, "n3": 0.0, "nc": 8.0, "nc1": 3.0, "nc2": 8.0, "nc3": 0.0, "nhc": 3.0, "p0": 1009.08, "pg": 0.0, "pp": 1014.85, "pr": 0.0, "ps": 1010.9, "pwc": 0.0, "qg": null, "qgn": null, "qgx": null, "qnh": 1014.89, "rg": null, "rh": 78.0, "sq": 0.0, "ss": null, "ta": 15.1, "tb": 12.869, "tb1": null, "tb2": null, "tb3": null, "tb4": null, "tb5": null, "td": 11.4, "tg": null, "tgn": null, "tn": 15.1, "tsd": null, "tx": 15.3, "vv": 34300.0, "ww": 2.0, "ww-10": 1.0, "za": 4.0, "zm": 34300.0, "wsi": "0-20000-0-06205", "stationname": "A12-CPP", "latitude": 55.3992, "longitude": 3.8103, "height": 48.35, "product": "", "projection": "" }, "geometry": { "type": "Point", "coordinates": [ 3.8103, 55.3992 ] } },
{ "type": "Feature", "properties": { "station": "06207", "source_filename": "KMDS__OPER_P___10M_OBS_L2_202609280140.nc", "observation_time": "2026-09-28T01:40:00Z", "D1H": null, "Q1H": null, "Q24H": null, "R12H": null, "R1H": null, "R24H": null, "R6H": null, "Sav1H": 4.99111, "Sax1H": 5.52345, "Sax3H": 8.51731, "Sax6H": 10.2624, "Sx1H": 7.05247, "Sx3H": 10.3408, "Sx6H": 12.7696, "Tb1n6": null, "Tb1x6": null, "Tb2n6": null, "Tb2x6": null, "Tgn12": null, "Tgn14": null, "Tgn6": null, "Tn12": 16.2, "Tn14": 15.6, "Tn6": 17.0, "Tx12": 19.0, "Tx24": 19.0, "Tx6": 19.0, "W10": 0.0, "W10-10": 0.0, "dd": 190.5, "dn": 182.8, "dr": null, "dsd": 4.1, "dx": 201.1, "ff": 4.46679, "ffs": 5.58, "fsd": 0.39, "fx": null, "fxs": null, "gff": 5.41663, "gffs": 6.49, "h": 1514.92, "h1": 1514.92, "h2": 1834.92, "h3": 2054.92, "hc": 1514.92, "hc1": 1514.92, "hc2": 1834.92, "hc3": 2054.92, "n": 8.0, "n1": 1.0, "n2": 3.0, "n3": 8.0, "nc": 8.0, "nc1": 1.0, "nc2": 3.0, "nc3": 8.0, "nhc": 8.0, "p0": 1012.11, "pg": 0.0, "pp": 1017.35, "pr": 0.0, "ps": 1013.7, "pwc": 0.0, "qg": null, "qgn": null, "qgx": null, "qnh": 1017.39, "rg": null, "rh": 85.0, "sq": 0.0, "ss": null, "ta": 18.2, "tb": 16.5602, "tb1": null, "tb2": null, "tb3": null, "tb4": null, "tb5": null, "td": 15.8, "tg": null, "tgn": null, "tn": 18.2, "tsd": null, "tx": 18.2, "vv": 23000.0, "ww": 2.0, "ww-10": 22.0, "za": 8.09, "zm": 23000.0, "wsi": "0-20000-0-06207", "stationname": "L9-FF-1", "latitude": 53.6144, "longitude": 4.9603, "height": 45.31, "product": "", "projection": "" }, "geometry": { "type": "Point", "coordinates": [ 4.9603, 53.6144 ] } },
{ "type": "Feature", "properties": { "station": "06208", "source_filename": "KMDS__OPER_P___10M_OBS_L2_202609280140.nc", "observation_time": "2026-09-28T01:40:00Z", "D1H": null, "Q1H": null, "Q24H": null, "R12H": null, "R1H": null, "R24H": null, "R6H": null, "Sav1H": 2.4343, "Sax1H": 3.17843, "Sax3H": 7.80084, "Sax6H": 7.80084, "Sx1H": 4.07566, "Sx3H": 9.01977, "Sx6H": 9.01977, "Tb1n6": null, "Tb1x6": null, "Tb2n6": null, "Tb2x6": null, "Tgn12": null, "Tgn14": null, "Tgn6": null, "Tn12": 16.8, "Tn14": 16.8, "Tn6": 16.8, "Tx12": 19.7, "Tx24": 19.7, "Tx6": 18.2, "W10": 8.0, "W10-10": 0.0, "dd": 199.9, "dn": 84.4, "dr": null, "dsd": 43.1, "dx": 83.0, "ff": 2.40664, "ffs": 2.9, "fsd": 0.45, "fx": null, "fxs": null, "gff": 3.3276, "gffs": 3.87, "h": 3154.92, "h1": 3154.92, "h2": 5244.92, "h3": 0.0, "hc": 3154.92, "hc1": 3154.92, "hc2": 5244.92, "hc3": 0.0, "n": 8.0, "n1": 1.0, "n2": 8.0, "n3": 0.0, "nc": 8.0, "nc1": 1.0, "nc2": 8.0, "nc3": 0.0, "nhc": 8.0, "p0": 1011.84, "pg": 0.0158, "pp": 1016.64, "pr": 72.0, "ps": 1013.6, "pwc": 60.0, "qg": null, "qgn": null, "qgx": null, "qnh": 1016.7, "rg": null, "rh": 91.0, "sq": 0.0, "ss": null, "ta": 16.8, "tb": 15.8642, "tb1": null, "tb2": null, "tb3": null, "tb4": null, "tb5": null, "td": 15.5, "tg": null, "tgn": null, "tn": 16.8, "tsd": null, "tx": 17.0, "vv": 7570.0, "ww": 81.0, "ww-10": 23.0, "za": 4.0, "zm": 7570.0, "wsi": "0-20000-0-06208", "stationname": "AWG-1", "latitude": 53.4917, "longitude": 5.9417, "height": 40.5, "product": "", "projection": "" }, "geometry": { "type": "Point", "coordinates": [ 5.9417, 53.4917 ] } },
{ "type": "Feature", "properties": { "station": "06211", "source_filename": "KMDS__OPER_P___10M_OBS_L2_202609280140.nc", "observation_time": "2026-09-28T01:40:00Z", "D1H": null, "Q1H": null, "Q24H": null, "R12H": null, "R1H": null, "R24H": null, "R6H": null, "Sav1H": 7.46542, "Sax1H": 7.79529, "Sax3H": 9.66909, "Sax6H": 11.7376, "Sx1H": 8.86843, "Sx3H": 11.2564, "Sx6H": 14.9439, "Tb1n6": null, "Tb1x6": null, "Tb2n6": null, "Tb2x6": null, "Tgn12": null, "Tgn14": null, "Tgn6": null, "Tn12": 16.7, "Tn14": 16.7, "Tn6": 16.7, "Tx12": 18.3, "Tx24": 18.3, "Tx6": 18.3, "W10": 0.0, "W10-10": 0.0, "dd": 319.2, "dn": 300.9, "dr": null, "dsd": 3.3, "dx": 337.5, "ff": 7.47083, "ffs": 9.21, "fsd": 0.51, "fx": null, "fxs": null, "gff": 8.66592, "gffs": 10.27, "h": 5794.92, "h1": 5794.92, "h2": 31704.9, "h3": 0.0, "hc": 5794.92, "hc1": 5794.92, "hc2": 31704.9, "hc3": 0.0, "n": 8.0, "n1": 3.0, "n2": 8.0, "n3": 0.0, "nc": 8.0, "nc1": 3.0, "nc2": 8.0, "nc3": 0.0, "nhc": 3.0, "p0": 1010.14, "pg": 0.0, "pp": 1015.58, "pr": 0.0, "ps": 1011.4, "pwc": 0.0, "qg": null, "qgn": null, "qgx": null, "qnh": 1015.63, "rg": null, "rh": 79.0, "sq": 0.0, "ss": null, "ta": 16.7, "tb": 14.4713, "tb1": null, "tb2": null, "tb3": null, "tb4": null, "tb5": null, "td": 13.1, "tg": null, "tgn": null, "tn": 16.7, "tsd": null, "tx": 16.8, "vv": 45600.0, "ww": 23.0, "ww-10": 23.0, "za": 4.0, "zm": 45600.0, "wsi": "0-20000-0-06211", "stationname": "J6-A", "latitude": 53.8242, "longitude": 2.9453, "height": 45.7, "product": "", "projection": "" }, "geometry": { "type": "Point", "coordinates": [ 2.9453, 53.8242 ] } },
{ "type": "Feature", "properties": { "station": "06213", "source_filename": "KMDS__OPER_P___10M_OBS_L2_202609280140.nc", "observation_time": "2026-09-28T01:40:00Z", "D1H": null, "Q1H": null, "Q24H": null, "R12H": null, "R1H": null, "R24H": null, "R6H": null, "Sav1H": 5.26601, "Sax1H": 5.71595, "Sax3H": 6.4242, "Sax6H": 7.59072, "Sx1H": 7.77297, "Sx3H": 8.74783, "Sx6H": 10.9391, "Tb1n6": null, "Tb1x6": null, "Tb2n6": null, "Tb2x6": null, "Tgn12": null, "Tgn14": null, "Tgn6": null, "Tn12": 17.0, "Tn14": 15.6, "Tn6": 18.1, "Tx12": 19.9, "Tx24": 19.9, "Tx6": 19.9, "W10": 0.0, "W10-10": 0.0, "dd": 225.4, "dn": 203.9, "dr": null, "dsd": 7.5, "dx": 251.7, "ff": 4.8244, "ffs": 5.79, "fsd": 0.61, "fx": null, "fxs": null, "gff": 6.75498, "gffs": 7.83, "h": 1054.92, "h1": 1054.92, "h2": 1344.92, "h3": 1574.92, "hc": 1054.92, "hc1": 1054.92, "hc2": 1344.92, "hc3": 1574.92, "n": 8.0, "n1": 1.0, "n2": 3.0, "n3": 7.0, "nc": 8.0, "nc1": 1.0, "nc2": 3.0, "nc3": 7.0, "nhc": 8.0, "p0": 1011.93, "pg": 0.0, "pp": 1016.64, "pr": 0.0, "ps": 1012.2, "pwc": 0.0, "qg": null, "qgn": null, "qgx": null, "qnh": 1016.69, "rg": null, "rh": 87.0, "sq": 0.0, "ss": null, "ta": 19.0, "tb": 17.5536, "tb1": null, "tb2": null, "tb3": null, "tb4": null, "tb5": null, "td": 17.0, "tg": null, "tgn": null, "tn": 19.0, "tsd": null, "tx": 19.0, "vv": 48100.0, "ww": 2.0, "ww-10": 2.0, "za": 2.0, "zm": 48100.0, "wsi": "0-528-0-06213", "stationname": "Hollandse Kust Noord", "latitude": 52.6978, "longitude": 4.2933, "height": 39.66, "product": "", "projection": "" }, "geometry": { "type": "Point", "coordinates": [ 4.2933, 52.6978 ] } },
{ "type": "Feature", "properties": { "station": "06214", "source_filename": "KMDS__OPER_P___10M_OBS_L2_202609280140.nc", "observation_time": "2026-09-28T01:40:00Z", "D1H": null, "Q1H": null, "Q24H": null, "R12H": null, "R1H": null, "R24H": null, "R6H": null, "Sav1H": 3.78843, "Sax1H": 4.34531, "Sax3H": 5.9653, "Sax6H": 5.9653, "Sx1H": 5.92723, "Sx3H": 8.91699, "Sx6H": 8.91699, "Tb1n6": null, "Tb1x6": null, "Tb2n6": null, "Tb2x6": null, "Tgn12": null, "Tgn14": null, "Tgn6": null, "Tn12": 16.8, "Tn14": 16.1, "Tn6": 16.8, "Tx12": 19.4, "Tx24": 19.4, "Tx6": 19.4, "W10": 5.0, "W10-10": 6.0, "dd": 248.0, "dn": 220.8, "dr": null, "dsd": 8.4, "dx": 277.0, "ff": 3.52687, "ffs": 4.18, "fsd": 0.53, "fx": null, "fxs": null, "gff": 4.82895, "gffs": 5.54, "h": 354.921, "h1": 354.921, "h2": 464.921, "h3": 2594.92, "hc": 354.921, "hc1": 354.921, "hc2": 464.921, "hc3": 2594.92, "n": 8.0, "n1": 2.0, "n2": 3.0, "n3": 8.0, "nc": 8.0, "nc1": 2.0, "nc2": 3.0, "nc3": 8.0, "nhc": 8.0, "p0": 1008.81, "pg": 0.254, "pp": 1013.98, "pr": 600.0, "ps": 1009.9, "pwc": 50.0, "qg": null, "qgn": null, "qgx": null, "qnh": 1014.04, "rg": null, "rh": 93.0, "sq": 0.0, "ss": null, "ta": 16.8, "tb": 16.0742, "tb1": null, "tb2": null, "tb3": null, "tb4": null, "tb5": null, "td": 15.7, "tg": null, "tgn": null, "tn": 16.8, "tsd": null, "tx": 17.1, "vv": 6990.0, "ww": 52.0, "ww-10": 61.0, "za": 4.04, "zm": 6990.0, "wsi": "0-20000-0-06214", "stationname": "Buitengaats BG-OHVS2", "latitude": 54.0369, "longitude": 6.0417, "height": 43.56, "product": "", "projection": "" }, "geometry": { "type": "Point", "coordinates": [ 6.0417, 54.0369 ] } },
{ "type": "Feature", "properties": { "station": "06215", "source_filename": "KMDS__OPER_P___10M_OBS_L2_202609280140.nc", "observation_time": "2026-09-28T01:40:00Z", "D1H": 0.0, "Q1H": 0.0, "Q24H": null, "R12H": null, "R1H": 0.0, "R24H": null, "R6H": 0.0, "Sav1H": 1.75317, "Sax1H": 2.12, "Sax3H": 2.12, "Sax6H": 2.7, "Sx1H": 2.9, "Sx3H": 2.9, "Sx6H": 4.39, "Tb1n6": null, "Tb1x6": null, "Tb2n6": null, "Tb2x6": null, "Tgn12": 11.3, "Tgn14": 11.3, "Tgn6": 11.7, "Tn12": 14.7, "Tn14": 14.7, "Tn6": 14.7, "Tx12": 21.8, "Tx24": 21.8, "Tx6": 18.4, "W10": 1.0, "W10-10": 0.0, "dd": 197.9, "dn": 181.4, "dr": 0.0, "dsd": 5.5, "dx": 216.6, "ff": 1.91, "ffs": 1.91, "fsd": 0.12, "fx": 2.9, "fxs": 2.9, "gff": 2.74, "gffs": 2.74, "h": 4644.92, "h1": 4644.92, "h2": 5304.92, "h3": 14214.9, "hc": 4644.92, "hc1": 4644.92, "hc2": 5304.92, "hc3": 14214.9, "n": 8.0, "n1": 3.0, "n2": 5.0, "n3": 8.0, "nc": 8.0, "nc1": 3.0, "nc2": 5.0, "nc3": 8.0, "nhc": 8.0, "p0": 1017.29, "pg": 0.0, "pp": 1017.15, "pr": 0.0, "ps": 1017.1, "pwc": 0.0, "qg": 0.0, "qgn": 0.0, "qgx": 0.0, "qnh": 1017.15, "rg": 0.0, "rh": 96.0, "sq": 0.0, "ss": 0.0, "ta": 16.0, "tb": 15.5972, "tb1": null, "tb2": null, "tb3": null, "tb4": null, "tb5": null, "td": 15.5, "tg": 14.3, "tgn": 14.0, "tn": 15.9, "tsd": null, "tx": 16.1, "vv": 9720.0, "ww": 10.0, "ww-10": 2.0, "za": 4.0, "zm": 9720.0, "wsi": "0-20000-0-06215", "stationname": "Voorschoten", "latitude": 52.1397, "longitude": 4.4364, "height": -1.15, "product": "", "projection": "" }, "geometry": { "type": "Point", "coordinates": [ 4.4364, 52.1397 ] } },
{ "type": "Feature", "properties": { "station": "06218", "source_filename": "KMDS__OPER_P___10M_OBS_L2_202609280140.nc", "observation_time": "2026-09-28T01:40:00Z", "D1H": null, "Q1H": null, "Q24H": null, "R12H": null, "R1H": null, "R24H": null, "R6H": null, "Sav1H": 5.75215, "Sax1H": 6.28418, "Sax3H": 7.42069, "Sax6H": 9.13379, "Sx1H": 7.55816, "Sx3H": 8.86397, "Sx6H": 11.5188, "Tb1n6": null, "Tb1x6": null, "Tb2n6": null, "Tb2x6": null, "Tgn12": null, "Tgn14": null, "Tgn6": null, "Tn12": 17.3, "Tn14": 16.5, "Tn6": 17.9, "Tx12": 20.0, "Tx24": null, "Tx6": 20.0, "W10": 0.0, "W10-10": 0.0, "dd": 255.2, "dn": 246.1, "dr": null, "dsd": 3.1, "dx": 263.0, "ff": 5.47359, "ffs": 6.55, "fsd": 0.55, "fx": null, "fxs": null, "gff": 6.73662, "gffs": 7.79, "h": 1484.92, "h1": 1484.92, "h2": 2004.92, "h3": 3004.92, "hc": 1484.92, "hc1": 1484.92, "hc2": 2004.92, "hc3": 3004.92, "n": 8.0, "n1": 1.0, "n2": 3.0, "n3": 6.0, "nc": 8.0, "nc1": 1.0, "nc2": 3.0, "nc3": 6.0, "nhc": 8.0, "p0": 1011.53, "pg": 0.0, "pp": 1016.37, "pr": 0.0, "ps": 1011.8, "pwc": 0.0, "qg": null, "qgn": null, "qgx": null, "qnh": 1016.43, "rg": null, "rh": 86.0, "sq": 0.0, "ss": null, "ta": 18.8, "tb": 17.2472, "tb1": null, "tb2": null, "tb3": null, "tb4": null, "tb5": null, "td": 16.6, "tg": null, "tgn": null, "tn": 18.8, "tsd": null, "tx": 18.9, "vv": 44800.0, "ww": 2.0, "ww-10": 2.0, "za": 2.0, "zm": 44800.0, "wsi": "0-528-0-06218", "stationname": "Hollandse Kust West Alpha", "latitude": 52.6797, "longitude": 3.8044, "height": 40.77, "product": "", "projection": "" }, "geometry": { "type": "Point", "coordinates": [ 3.8044, 52.6797 ] } },
{ "type": "Feature", "properties": { "station": "06225", "source_filename": "KMDS__OPER_P___10M_OBS_L2_202609280140.nc", "observation_time": "2026-09-28T01:40:00Z", "D1H": null, "Q1H": null, "Q24H": null, "R12H": null, "R1H": null, "R24H": null, "R6H": null, "Sav1H": 5.0845, "Sax1H": 5.34, "Sax3H": 6.57, "Sax6H": 6.57, "Sx1H": 6.02, "Sx3H": 7.54, "Sx6H": 7.54, "Tb1n6": null, "Tb1x6": null, "Tb2n6": null, "Tb2x6": null, "Tgn12": null, "Tgn14": null, "Tgn6": null, "Tn12": null, "Tn14": null, "Tn6": null, "Tx12": null, "Tx24": null, "Tx6": null, "W10": null, "W10-10": null, "dd": 204.3, "dn": 195.5, "dr": null, "dsd": 3.3, "dx": 210.9, "ff": 4.55, "ffs": 4.55, "fsd": 0.18, "fx": 5.36, "fxs": 5.36, "gff": 5.09, "gffs": 5.09, "h": null, "h1": null, "h2": null, "h3": null, "hc": null, "hc1": null, "hc2": null, "hc3": null, "n": null, "n1": null, "n2": null, "n3": null, "nc": null, "nc1": null, "nc2": null, "nc3": null, "nhc": null, "p0": null, "pg": null, "pp": null, "pr": null, "ps": null, "pwc": null, "qg": null, "qgn": null, "qgx": null, "qnh": null, "rg": null, "rh": null, "sq": 0.0, "ss": null, "ta": null, "tb": null, "tb1": null, "tb2": null, "tb3": null, "tb4": null, "tb5": null, "td": null, "tg": null, "tgn": null, "tn": null, "tsd": null, "tx": null, "vv": null, "ww": null, "ww-10": null, "za": null, "zm": null, "wsi": "0-20000-0-06225", "stationname": "IJmuiden", "latitude": 52.4622, "longitude": 4.555, "height": 4.4, "product": "", "projection": "" }, "geometry": { "type": "Point", "coordinates": [ 4.555, 52.4622 ] } },
{ "type": "Feature", "properties": { "station": "06229", "source_filename": "KMDS__OPER_P___10M_OBS_L2_202609280140.nc", "observation_time": "2026-09-28T01:40:00Z", "D1H": null, "Q1H": null, "Q24H": null, "R12H": null, "R1H": null, "R24H": null, "R6H": null, "Sav1H": 4.75767, "Sax1H": 5.3, "Sax3H": 5.98, "Sax6H": 9.46, "Sx1H": 6.08, "Sx3H": 7.19, "Sx6H": 11.22, "Tb1n6": null, "Tb1x6": null, "Tb2n6": null, "Tb2x6": null, "Tgn12": null, "Tgn14": null, "Tgn6": null, "Tn12": null, "Tn14": null, "Tn6": null, "Tx12": null, "Tx24": null, "Tx6": null, "W10": null, "W10-10": null, "dd": 193.0, "dn": 182.8, "dr": null, "dsd": 2.7, "dx": 202.5, "ff": 4.55, "ffs": 4.55, "fsd": 0.16, "fx": 5.03, "fxs": 5.03, "gff": 5.03, "gffs": 5.03, "h": null, "h1": null, "h2": null, "h3": null, "hc": null, "hc1": null, "hc2": null, "hc3": null, "n": null, "n1": null, "n2": null, "n3": null, "nc": null, "nc1": null, "nc2": null, "nc3": null, "nhc": null, "p0": null, "pg": null, "pp": null, "pr": null, "ps": null, "pwc": null, "qg": null, "qgn": null, "qgx": null, "qnh": null, "rg": null, "rh": null, "sq": null, "ss": null, "ta": null, "tb": null, "tb1": null, "tb2": null, "tb3": null, "tb4": null, "tb5": null, "td": null, "tg": null, "tgn": null, "tn": null, "tsd": null, "tx": null, "vv": null, "ww": null, "ww-10": null, "za": null, "zm": null, "wsi": "0-20000-0-06229", "stationname": "Texelhors", "latitude": 52.995, "longitude": 4.72, "height": 1.0, "product": "", "projection": "" }, "geometry": { "type": "Point", "coordinates": [ 4.72, 52.995 ] } },
{ "type": "Feature", "properties": { "station": "06269", "source_filename": "KMDS__OPER_P___10M_OBS_L2_202609280140.nc", "observation_time": "2026-09-28T01:40:00Z", "D1H": 0.0, "Q1H": 0.0, "Q24H": 1175.52, "R12H": 0.0, "R1H": 0.0, "R24H": 0.0, "R6H": 0.0, "Sav1H": 1.4685, "Sax1H": 1.77, "Sax3H": 1.77, "Sax6H": 2.47, "Sx1H": 2.51, "Sx3H": 2.8, "Sx6H": 3.34, "Tb1n6": null, "Tb1x6": null, "Tb2n6": null, "Tb2x6": null, "Tgn12": 10.9, "Tgn14": 10.9, "Tgn6": 10.9, "Tn12": 14.3, "Tn14": 14.3, "Tn6": 14.3, "Tx12": 21.8, "Tx24": 21.8, "Tx6": 16.9, "W10": 0.0, "W10-10": 0.0, "dd": 151.4, "dn": 135.0, "dr": 0.0, "dsd": 5.1, "dx": 167.3, "ff": 1.77, "ffs": 1.77, "fsd": 0.18, "fx": 2.51, "fxs": 2.51, "gff": 2.51, "gffs": 2.51, "h": 6694.92, "h1": 6694.92, "h2": 27434.9, "h3": 0.0, "hc": 6694.92, "hc1": 6694.92, "hc2": 27434.9, "hc3": 0.0, "n": 8.0, "n1": 7.0, "n2": 8.0, "n3": 0.0, "nc": 8.0, "nc1": 7.0, "nc2": 8.0, "nc3": 0.0, "nhc": 7.0, "p0": 1017.88, "pg": 0.0, "pp": 1017.34, "pr": 0.0, "ps": 1017.7, "pwc": 0.0, "qg": 0.0, "qgn": 0.0, "qgx": 0.0, "qnh": 1017.34, "rg": 0.0, "rh": 87.0, "sq": 0.0, "ss": 0.0, "ta": 15.9, "tb": 14.573, "tb1": null, "tb2": null, "tb3": null, "tb4": null, "tb5": null, "td": 13.8, "tg": 14.6, "tgn": 14.0, "tn": 15.5, "tsd": null, "tx": 15.9, "vv": 15900.0, "ww": 2.0, "ww-10": 2.0, "za": 2.0, "zm": 15900.0, "wsi": "0-20000-0-06269", "stationname": "Lelystad Airport", "latitude": 52.4483, "longitude": 5.5081, "height": -4.52, "product": "", "projection": "" }, "geometry": { "type": "Point", "coordinates": [ 5.5081, 52.4483 ] } },
{ "type": "Feature", "properties": { "station": "06233", "source_filename": "KMDS__OPER_P___10M_OBS_L2_202609280140.nc", "observation_time": "2026-09-28T01:40:00Z", "D1H": null, "Q1H": 0.0, "Q24H": null, "R12H": null, "R1H": null, "R24H": null, "R6H": null, "Sav1H": 2.39117, "Sax1H": 2.88, "Sax3H": 4.1, "Sax6H": 5.73, "Sx1H": 3.96, "Sx3H": 6.31, "Sx6H": 9.13, "Tb1n6": null, "Tb1x6": null, "Tb2n6": null, "Tb2x6": null, "Tgn12": null, "Tgn14": null, "Tgn6": null, "Tn12": null, "Tn14": null, "Tn6": null, "Tx12": null, "Tx24": null, "Tx6": null, "W10": 0.0, "W10-10": null, "dd": 181.0, "dn": 158.9, "dr": null, "dsd": 7.4, "dx": 203.9, "ff": 1.98, "ffs": 1.98, "fsd": 0.14, "fx": 2.43, "fxs": 2.43, "gff": 2.43, "gffs": 2.43, "h": null, "h1": null, "h2": null, "h3": null, "hc": 4684.92, "hc1": 4684.92, "hc2": 12974.9, "hc3": 0.0, "n": null, "n1": null, "n2": null, "n3": null, "nc": 8.0, "nc1": 5.0, "nc2": 8.0, "nc3": 0.0, "nhc": 8.0, "p0": null, "pg": 0.0, "pp": null, "pr": null, "ps": null, "pwc": 0.0, "qg": 0.0, "qgn": 0.0, "qgx": 0.0, "qnh": null, "rg": null, "rh": null, "sq": 0.0, "ss": null, "ta": null, "tb": null, "tb1": null, "tb2": null, "tb3": null, "tb4": null, "tb5": null, "td": null, "tg": null, "tgn": null, "tn": null, "tsd": null, "tx": null, "vv": 34200.0, "ww": 2.0, "ww-10": null, "za": 2.0, "zm": 34200.0, "wsi": "0-528-0-06233", "stationname": "Assendelft", "latitude": 52.4819, "longitude": 4.7258, "height": -1.6, "product": "", "projection": "" }, "geometry": { "type": "Point", "coordinates": [ 4.7258, 52.4819 ] } },
{ "type": "Feature", "properties": { "station": "06236", "source_filename": "KMDS__OPER_P___10M_OBS_L2_202609280140.nc", "observation_time": "2026-09-28T01:40:00Z", "D1H": null, "Q1H": 0.0, "Q24H": null, "R12H": null, "R1H": null, "R24H": null, "R6H": null, "Sav1H": 2.2645, "Sax1H": 2.68, "Sax3H": 2.68, "Sax6H": 3.48, "Sx1H": 3.15, "Sx3H": 3.15, "Sx6H": 4.41, "Tb1n6": null, "Tb1x6": null, "Tb2n6": null, "Tb2x6": null, "Tgn12": null, "Tgn14": null, "Tgn6": null, "Tn12": null, "Tn14": null, "Tn6": null, "Tx12": null, "Tx24": null, "Tx6": null, "W10": 1.0, "W10-10": null, "dd": 174.6, "dn": 158.9, "dr": null, "dsd": 5.0, "dx": 185.6, "ff": 2.28, "ffs": 2.28, "fsd": 0.2, "fx": 2.86, "fxs": 2.86, "gff": 2.86, "gffs": 2.86, "h": null, "h1": null, "h2": null, "h3": null, "hc": 5014.92, "hc1": 5014.92, "hc2": 0.0, "hc3": 0.0, "n": null, "n1": null, "n2": null, "n3": null, "nc": 8.0, "nc1": 8.0, "nc2": 0.0, "nc3": 0.0, "nhc": 8.0, "p0": null, "pg": 0.0, "pp": null, "pr": null, "ps": null, "pwc": 0.0, "qg": 0.0, "qgn": 0.0, "qgx": 0.0, "qnh": null, "rg": null, "rh": null, "sq": 0.0, "ss": null, "ta": null, "tb": null, "tb1": null, "tb2": null, "tb3": null, "tb4": null, "tb5": null, "td": null, "tg": null, "tgn": null, "tn": null, "tsd": null, "tx": null, "vv": 7950.0, "ww": 10.0, "ww-10": null, "za": 4.0, "zm": 7950.0, "wsi": "0-528-0-06236", "stationname": "Muiden", "latitude": 52.3353, "longitude": 5.0922, "height": -0.9, "product": "", "projection": "" }, "geometry": { "type": "Point", "coordinates": [ 5.0922, 52.3353 ] } },
{ "type": "Feature", "properties": { "station": "06237", "source_filename": "KMDS__OPER_P___10M_OBS_L2_202609280140.nc", "observation_time": "2026-09-28T01:40:00Z", "D1H": null, "Q1H": 0.0, "Q24H": null, "R12H": null, "R1H": null, "R24H": null, "R6H": null, "Sav1H": 1.1395, "Sax1H": 1.25, "Sax3H": null, "Sax6H": 2.55, "Sx1H": 2.0, "Sx3H": null, "Sx6H": 3.69, "Tb1n6": null, "Tb1x6": null, "Tb2n6": null, "Tb2x6": null, "Tgn12": null, "Tgn14": null, "Tgn6": null, "Tn12": null, "Tn14": null, "Tn6": null, "Tx12": null, "Tx24": null, "Tx6": null, "W10": 0.0, "W10-10": null, "dd": 197.2, "dn": 177.2, "dr": null, "dsd": 6.0, "dx": 218.0, "ff": 1.25, "ffs": 1.25, "fsd": 0.18, "fx": 2.0, "fxs": 2.0, "gff": 2.0, "gffs": 2.0, "h": null, "h1": null, "h2": null, "h3": null, "hc": 5344.92, "hc1": 5344.92, "hc2": 0.0, "hc3": 0.0, "n": null, "n1": null, "n2": null, "n3": null, "nc": 8.0, "nc1": 8.0, "nc2": 0.0, "nc3": 0.0, "nhc": 8.0, "p0": null, "pg": 0.0, "pp": null, "pr": null, "ps": null, "pwc": 0.0, "qg": 0.0, "qgn": 0.0, "qgx": 0.0, "qnh": null, "rg": null, "rh": null, "sq": 0.0, "ss": null, "ta": null, "tb": null, "tb1": null, "tb2": null, "tb3": null, "tb4": null, "tb5": null, "td": null, "tg": null, "tgn": null, "tn": null, "tsd": null, "tx": null, "vv": 7600.0, "ww": 10.0, "ww-10": null, "za": 2.0, "zm": 7600.0, "wsi": "0-528-0-06237", "stationname": "Nieuw-Vennep", "latitude": 52.255, "longitude": 4.6478, "height": -4.8, "product": "", "projection": "" }, "geometry": { "type": "Point", "coordinates": [ 4.6478, 52.255 ] } },
{ "type": "Feature", "properties": { "station": "06238", "source_filename": "KMDS__OPER_P___10M_OBS_L2_202609280140.nc", "observation_time": "2026-09-28T01:40:00Z", "D1H": null, "Q1H": 0.0, "Q24H": null, "R12H": null, "R1H": null, "R24H": null, "R6H": null, "Sav1H": 1.49867, "Sax1H": 1.69, "Sax3H": 1.69, "Sax6H": 3.13, "Sx1H": 2.76, "Sx3H": 2.76, "Sx6H": 4.29, "Tb1n6": null, "Tb1x6": null, "Tb2n6": null, "Tb2x6": null, "Tgn12": null, "Tgn14": null, "Tgn6": null, "Tn12": null, "Tn14": null, "Tn6": null, "Tx12": null, "Tx24": null, "Tx6": null, "W10": 0.0, "W10-10": null, "dd": 162.2, "dn": 122.3, "dr": null, "dsd": 13.6, "dx": 210.9, "ff": 1.56, "ffs": 1.56, "fsd": 0.26, "fx": 2.76, "fxs": 2.76, "gff": 2.76, "gffs": 2.76, "h": null, "h1": null, "h2": null, "h3": null, "hc": 5404.92, "hc1": 5404.92, "hc2": 0.0, "hc3": 0.0, "n": null, "n1": null, "n2": null, "n3": null, "nc": 8.0, "nc1": 8.0, "nc2": 0.0, "nc3": 0.0, "nhc": 8.0, "p0": null, "pg": 0.0, "pp": null, "pr": null, "ps": null, "pwc": 0.0, "qg": 0.0, "qgn": 0.0, "qgx": 0.0, "qnh": null, "rg": null, "rh": null, "sq": 0.0, "ss": null, "ta": null, "tb": null, "tb1": null, "tb2": null, "tb3": null, "tb4": null, "tb5": null, "td": null, "tg": null, "tgn": null, "tn": null, "tsd": null, "tx": null, "vv": 14000.0, "ww": 3.0, "ww-10": null, "za": 2.0, "zm": 14000.0, "wsi": "0-528-0-06238", "stationname": "Nieuwkoop", "latitude": 52.1514, "longitude": 4.765, "height": -5.77, "product": "", "projection": "" }, "geometry": { "type": "Point", "coordinates": [ 4.765, 52.1514 ] } },
{ "type": "Feature", "properties": { "station": "06240", "source_filename": "KMDS__OPER_P___10M_OBS_L2_202609280140.nc", "observation_time": "2026-09-28T01:40:00Z", "D1H": 0.0, "Q1H": 0.0, "Q24H": 1209.42, "R12H": null, "R1H": 0.0, "R24H": null, "R6H": 0.012, "Sav1H": 2.16833, "Sax1H": 2.37, "Sax3H": 2.37, "Sax6H": 3.89, "Sx1H": 2.88, "Sx3H": 2.99, "Sx6H": 4.99, "Tb1n6": null, "Tb1x6": null, "Tb2n6": null, "Tb2x6": null, "Tgn12": 12.6, "Tgn14": 12.6, "Tgn6": 13.4, "Tn12": 15.9, "Tn14": 15.9, "Tn6": 16.2, "Tx12": 20.9, "Tx24": 20.9, "Tx6": 18.1, "W10": 0.0, "W10-10": 0.0, "dd": 179.7, "dn": 185.6, "dr": 0.0, "dsd": 11.6, "dx": 208.1, "ff": 2.08, "ffs": 2.08, "fsd": 0.24, "fx": 2.74, "fxs": 2.74, "gff": 2.59, "gffs": 2.59, "h": 4854.92, "h1": 4854.92, "h2": 5374.92, "h3": 0.0, "hc": 4854.92, "hc1": 4854.92, "hc2": 5374.92, "hc3": 0.0, "n": 8.0, "n1": 6.0, "n2": 8.0, "n3": 0.0, "nc": 8.0, "nc1": 6.0, "nc2": 8.0, "nc3": 0.0, "nhc": 8.0, "p0": 1017.58, "pg": 0.0, "pp": 1017.11, "pr": 0.0, "ps": 1017.5, "pwc": 0.0, "qg": 0.0, "qgn": 0.0, "qgx": 0.0, "qnh": 1017.11, "rg": 0.0, "rh": 88.0, "sq": 0.0, "ss": 0.0, "ta": 17.0, "tb": 15.7383, "tb1": null, "tb2": null, "tb3": null, "tb4": null, "tb5": null, "td": 15.1, "tg": 15.8, "tgn": 15.8, "tn": 17.0, "tsd": null, "tx": 17.2, "vv": 15400.0, "ww": 2.0, "ww-10": 2.0, "za": 2.0, "zm": 15400.0, "wsi": "0-20000-0-06240", "stationname": "Schiphol Airport", "latitude": 52.3172, "longitude": 4.7897, "height": -3.87, "product": "", "projection": "" }, "geometry": { "type": "Point", "coordinates": [ 4.7897, 52.3172 ] } },
{ "type": "Feature", "properties": { "station": "06242", "source_filename": "KMDS__OPER_P___10M_OBS_L2_202609280140.nc", "observation_time": "2026-09-28T01:40:00Z", "D1H": null, "Q1H": null, "Q24H": null, "R12H": null, "R1H": null, "R24H": null, "R6H": null, "Sav1H": 4.332, "Sax1H": 5.01, "Sax3H": 7.01, "Sax6H": 8.97, "Sx1H": 6.37, "Sx3H": 8.62, "Sx6H": 11.73, "Tb1n6": null, "Tb1x6": null, "Tb2n6": null, "Tb2x6": null, "Tgn12": 13.9, "Tgn14": 13.9, "Tgn6": 14.7, "Tn12": 15.3, "Tn14": 15.3, "Tn6": 16.1, "Tx12": 19.0, "Tx24": 19.0, "Tx6": 17.9, "W10": 8.0, "W10-10": 1.0, "dd": 182.6, "dn": 164.5, "dr": null, "dsd": 5.7, "dx": 201.1, "ff": 5.01, "ffs": 5.01, "fsd": 0.39, "fx": 6.37, "fxs": 6.37, "gff": 6.24, "gffs": 6.24, "h": 1614.92, "h1": 1614.92, "h2": 1824.92, "h3": 2434.92, "hc": 1614.92, "hc1": 1614.92, "hc2": 1824.92, "hc3": 2434.92, "n": 8.0, "n1": 5.0, "n2": 7.0, "n3": 8.0, "nc": 8.0, "nc1": 5.0, "nc2": 7.0, "nc3": 8.0, "nhc": 8.0, "p0": 1016.04, "pg": 0.0186, "pp": 1016.25, "pr": 72.0, "ps": 1015.0, "pwc": 60.0, "qg": null, "qgn": null, "qgx": null, "qnh": 1016.25, "rg": null, "rh": 98.0, "sq": 0.0, "ss": null, "ta": 16.9, "tb": 16.6942, "tb1": null, "tb2": null, "tb3": null, "tb4": null, "tb5": null, "td": 16.7, "tg": 16.7, "tgn": 16.6, "tn": 16.9, "tsd": null, "tx": 16.9, "vv": 8500.0, "ww": 81.0, "ww-10": 10.0, "za": 7.88, "zm": 8500.0, "wsi": "0-20000-0-06242", "stationname": "Vlieland Vliehors", "latitude": 53.24, "longitude": 4.9208, "height": 1.72, "product": "", "projection": "" }, "geometry": { "type": "Point", "coordinates": [ 4.9208, 53.24 ] } },
{ "type": "Feature", "properties": { "station": "06248", "source_filename": "KMDS__OPER_P___10M_OBS_L2_202609280140.nc", "observation_time": "2026-09-28T01:40:00Z", "D1H": null, "Q1H": null, "Q24H": null, "R12H": null, "R1H": null, "R24H": null, "R6H": null, "Sav1H": 3.36067, "Sax1H": 3.71, "Sax3H": 3.71, "Sax6H": 5.28, "Sx1H": 4.22, "Sx3H": 5.91, "Sx6H": 6.76, "Tb1n6": null, "Tb1x6": null, "Tb2n6": null, "Tb2x6": null, "Tgn12": null, "Tgn14": null, "Tgn6": null, "Tn12": null, "Tn14": null, "Tn6": null, "Tx12": null, "Tx24": null, "Tx6": null, "W10": null, "W10-10": null, "dd": 185.7, "dn": 177.2, "dr": null, "dsd": 2.6, "dx": 192.7, "ff": 3.27, "ffs": 3.27, "fsd": 0.12, "fx": 3.96, "fxs": 3.96, "gff": 3.63, "gffs": 3.63, "h": null, "h1": null, "h2": null, "h3": null, "hc": null, "hc1": null, "hc2": null, "hc3": null, "n": null, "n1": null, "n2": null, "n3": null, "nc": null, "nc1": null, "nc2": null, "nc3": null, "nhc": null, "p0": null, "pg": null, "pp": null, "pr": null, "ps": null, "pwc": null, "qg": null, "qgn": null, "qgx": null, "qnh": null, "rg": null, "rh": null, "sq": 0.0, "ss": null, "ta": null, "tb": null, "tb1": null, "tb2": null, "tb3": null, "tb4": null, "tb5": null, "td": null, "tg": null, "tgn": null, "tn": null, "tsd": null, "tx": null, "vv": null, "ww": null, "ww-10": null, "za": null, "zm": null, "wsi": "0-20000-0-06248", "stationname": "Wijdenes", "latitude": 52.6325, "longitude": 5.1736, "height": 0.8, "product": "", "projection": "" }, "geometry": { "type": "Point", "coordinates": [ 5.1736, 52.6325 ] } },
{ "type": "Feature", "properties": { "station": "06249", "source_filename": "KMDS__OPER_P___10M_OBS_L2_202609280140.nc", "observation_time": "2026-09-28T01:40:00Z", "D1H": 0.0, "Q1H": 0.0, "Q24H": 1189.62, "R12H": 0.0, "R1H": 0.0, "R24H": 0.0, "R6H": 0.0, "Sav1H": 2.39783, "Sax1H": 2.61, "Sax3H": 4.33, "Sax6H": 4.33, "Sx1H": 3.69, "Sx3H": 6.41, "Sx6H": 6.41, "Tb1n6": null, "Tb1x6": null, "Tb2n6": null, "Tb2x6": null, "Tgn12": 10.8, "Tgn14": 10.8, "Tgn6": 11.3, "Tn12": 15.1, "Tn14": 15.1, "Tn6": 15.4, "Tx12": 20.9, "Tx24": 20.9, "Tx6": 18.1, "W10": 0.0, "W10-10": 0.0, "dd": 195.7, "dn": 174.4, "dr": 0.0, "dsd": 8.0, "dx": 220.8, "ff": 2.37, "ffs": 2.37, "fsd": 0.25, "fx": 3.18, "fxs": 3.18, "gff": 3.18, "gffs": 3.18, "h": null, "h1": null, "h2": null, "h3": null, "hc": null, "hc1": null, "hc2": null, "hc3": null, "n": null, "n1": null, "n2": null, "n3": null, "nc": null, "nc1": null, "nc2": null, "nc3": null, "nhc": null, "p0": null, "pg": 0.0, "pp": null, "pr": 0.0, "ps": null, "pwc": 0.0, "qg": 0.0, "qgn": 0.0, "qgx": 0.0, "qnh": null, "rg": 0.0, "rh": 95.0, "sq": 0.0, "ss": 0.0, "ta": 16.6, "tb": 16.0863, "tb1": null, "tb2": null, "tb3": null, "tb4": null, "tb5": null, "td": 15.8, "tg": 15.8, "tgn": 15.7, "tn": 16.6, "tsd": null, "tx": 16.7, "vv": null, "ww": 0.0, "ww-10": 0.0, "za": null, "zm": 11300.0, "wsi": "0-20000-0-06249", "stationname": "Berkhout", "latitude": 52.6428, "longitude": 4.9789, "height": -2.4, "product": "", "projection": "" }, "geometry": { "type": "Point", "coordinates": [ 4.9789, 52.6428 ] } },
{ "type": "Feature", "properties": { "station": "06251", "source_filename": "KMDS__OPER_P___10M_OBS_L2_202609280140.nc", "observation_time": "2026-09-28T01:40:00Z", "D1H": 0.0, "Q1H": 0.0, "Q24H": 1167.18, "R12H": null, "R1H": 0.0, "R24H": null, "R6H": 0.0, "Sav1H": 2.156, "Sax1H": 2.43, "Sax3H": 6.9, "Sax6H": 6.9, "Sx1H": 2.88, "Sx3H": 9.9, "Sx6H": 9.9, "Tb1n6": null, "Tb1x6": null, "Tb2n6": null, "Tb2x6": null, "Tgn12": 12.9, "Tgn14": 12.9, "Tgn6": 14.5, "Tn12": 14.1, "Tn14": 14.1, "Tn6": 15.4, "Tx12": 18.0, "Tx24": 18.0, "Tx6": 18.0, "W10": 0.0, "W10-10": 0.0, "dd": 176.8, "dn": 158.9, "dr": 0.0, "dsd": 4.6, "dx": 194.1, "ff": 2.02, "ffs": 2.02, "fsd": 0.14, "fx": 2.53, "fxs": 2.53, "gff": 2.53, "gffs": 2.53, "h": null, "h1": null, "h2": null, "h3": null, "hc": null, "hc1": null, "hc2": null, "hc3": null, "n": null, "n1": null, "n2": null, "n3": null, "nc": null, "nc1": null, "nc2": null, "nc3": null, "nhc": null, "p0": 1016.39, "pg": 0.0, "pp": 1016.48, "pr": 0.0, "ps": 1016.1, "pwc": 0.0, "qg": 0.0, "qgn": 0.0, "qgx": 0.0, "qnh": 1016.48, "rg": 0.0, "rh": 95.0, "sq": 0.0, "ss": 0.0, "ta": 16.4, "tb": 15.8898, "tb1": null, "tb2": null, "tb3": null, "tb4": null, "tb5": null, "td": 15.6, "tg": 16.1, "tgn": 16.0, "tn": 16.3, "tsd": null, "tx": 16.4, "vv": null, "ww": 0.0, "ww-10": 22.0, "za": null, "zm": 11400.0, "wsi": "0-20000-0-06251", "stationname": "Hoorn Terschelling", "latitude": 53.3911, "longitude": 5.3458, "height": 0.73, "product": "", "projection": "" }, "geometry": { "type": "Point", "coordinates": [ 5.3458, 53.3911 ] } },
{ "type": "Feature", "properties": { "station": "06257", "source_filename": "KMDS__OPER_P___10M_OBS_L2_202609280140.nc", "observation_time": "2026-09-28T01:40:00Z", "D1H": 0.0, "Q1H": 0.0, "Q24H": 1173.24, "R12H": 0.025, "R1H": 0.0, "R24H": 0.031, "R6H": 0.0250001, "Sav1H": null, "Sax1H": null, "Sax3H": null, "Sax6H": null, "Sx1H": null, "Sx3H": null, "Sx6H": null, "Tb1n6": null, "Tb1x6": null, "Tb2n6": null, "Tb2x6": null, "Tgn12": 12.7, "Tgn14": 12.7, "Tgn6": 17.1, "Tn12": 14.8, "Tn14": 14.8, "Tn6": 17.9, "Tx12": 20.4, "Tx24": 20.8, "Tx6": 20.4, "W10": null, "W10-10": null, "dd": null, "dn": null, "dr": 0.0, "dsd": null, "dx": null, "ff": null, "ffs": null, "fsd": null, "fx": null, "fxs": null, "gff": null, "gffs": null, "h": null, "h1": null, "h2": null, "h3": null, "hc": null, "hc1": null, "hc2": null, "hc3": null, "n": null, "n1": null, "n2": null, "n3": null, "nc": null, "nc1": null, "nc2": null, "nc3": null, "nhc": null, "p0": null, "pg": null, "pp": null, "pr": null, "ps": null, "pwc": null, "qg": 0.0, "qgn": 0.0, "qgx": 0.0, "qnh": null, "rg": 0.0, "rh": 88.0, "sq": null, "ss": 0.0, "ta": 18.3, "tb": 16.9907, "tb1": null, "tb2": null, "tb3": null, "tb4": null, "tb5": null, "td": 16.3, "tg": 17.6, "tgn": 17.6, "tn": 18.3, "tsd": null, "tx": 18.5, "vv": null, "ww": null, "ww-10": null, "za": null, "zm": null, "wsi": "0-20000-0-06257", "stationname": "Wijk aan Zee", "latitude": 52.5053, "longitude": 4.6031, "height": 8.5, "product": "", "projection": "" }, "geometry": { "type": "Point", "coordinates": [ 4.6031, 52.5053 ] } },
{ "type": "Feature", "properties": { "station": "06258", "source_filename": "KMDS__OPER_P___10M_OBS_L2_202609280140.nc", "observation_time": "2026-09-28T01:40:00Z", "D1H": null, "Q1H": null, "Q24H": null, "R12H": null, "R1H": null, "R24H": null, "R6H": null, "Sav1H": 3.27033, "Sax1H": 3.63, "Sax3H": 5.71, "Sax6H": 5.71, "Sx1H": 4.86, "Sx3H": 7.79, "Sx6H": 7.79, "Tb1n6": null, "Tb1x6": null, "Tb2n6": null, "Tb2x6": null, "Tgn12": null, "Tgn14": null, "Tgn6": null, "Tn12": null, "Tn14": null, "Tn6": null, "Tx12": null, "Tx24": null, "Tx6": null, "W10": null, "W10-10": null, "dd": 196.8, "dn": 175.8, "dr": null, "dsd": 6.1, "dx": 216.6, "ff": 3.21, "ffs": 3.21, "fsd": 0.3, "fx": 4.06, "fxs": 4.06, "gff": 4.06, "gffs": 4.06, "h": null, "h1": null, "h2": null, "h3": null, "hc": null, "hc1": null, "hc2": null, "hc3": null, "n": null, "n1": null, "n2": null, "n3": null, "nc": null, "nc1": null, "nc2": null, "nc3": null, "nhc": null, "p0": null, "pg": null, "pp": null, "pr": null, "ps": null, "pwc": null, "qg": null, "qgn": null, "qgx": null, "qnh": null, "rg": null, "rh": null, "sq": null, "ss": null, "ta": null, "tb": null, "tb1": null, "tb2": null, "tb3": null, "tb4": null, "tb5": null, "td": null, "tg": null, "tgn": null, "tn": null, "tsd": null, "tx": null, "vv": null, "ww": null, "ww-10": null, "za": null, "zm": null, "wsi": "0-20000-0-06258", "stationname": "Houtribdijk", "latitude": 52.6481, "longitude": 5.4006, "height": 7.25, "product": "", "projection": "" }, "geometry": { "type": "Point", "coordinates": [ 5.4006, 52.6481 ] } },
{ "type": "Feature", "properties": { "station": "06260", "source_filename": "KMDS__OPER_P___10M_OBS_L2_202609280140.nc", "observation_time": "2026-09-28T01:40:00Z", "D1H": 0.0, "Q1H": 0.0, "Q24H": 1298.28, "R12H": 0.0, "R1H": 0.0, "R24H": 0.003, "R6H": 0.0, "Sav1H": 1.1265, "Sax1H": 1.27, "Sax3H": 1.27, "Sax6H": 1.27, "Sx1H": 1.67, "Sx3H": 1.69, "Sx6H": 1.69, "Tb1n6": 16.5, "Tb1x6": 17.1, "Tb2n6": 16.5, "Tb2x6": 16.8, "Tgn12": 11.0, "Tgn14": 11.0, "Tgn6": 11.0, "Tn12": 13.7, "Tn14": 13.7, "Tn6": 13.7, "Tx12": 21.8, "Tx24": 21.8, "Tx6": 15.5, "W10": 0.0, "W10-10": 0.0, "dd": 150.6, "dn": 142.0, "dr": 0.0, "dsd": 5.1, "dx": 164.5, "ff": 0.96, "ffs": 0.96, "fsd": 0.2, "fx": 1.46, "fxs": 1.46, "gff": 1.4, "gffs": 1.4, "h": 6084.92, "h1": 6084.92, "h2": 0.0, "h3": 0.0, "hc": 6084.92, "hc1": 6084.92, "hc2": 0.0, "hc3": 0.0, "n": 8.0, "n1": 8.0, "n2": 0.0, "n3": 0.0, "nc": 8.0, "nc1": 8.0, "nc2": 0.0, "nc3": 0.0, "nhc": 8.0, "p0": 1017.29, "pg": 0.0, "pp": 1017.52, "pr": 0.0, "ps": 1017.1, "pwc": 0.0, "qg": 0.0, "qgn": 0.0, "qgx": 0.0, "qnh": 1017.52, "rg": 0.0, "rh": 99.0, "sq": 0.0, "ss": 0.0, "ta": 15.1, "tb": 15.0024, "tb1": 16.5, "tb2": 16.5, "tb3": 16.6, "tb4": 16.7, "tb5": 16.8, "td": 15.1, "tg": 14.6, "tgn": 14.4, "tn": 15.0, "tsd": 0.0, "tx": 15.1, "vv": null, "ww": 10.0, "ww-10": 10.0, "za": null, "zm": 5840.0, "wsi": "0-20000-0-06260", "stationname": "De Bilt", "latitude": 52.0989, "longitude": 5.1797, "height": 1.9, "product": "", "projection": "" }, "geometry": { "type": "Point", "coordinates": [ 5.1797, 52.0989 ] } },
{ "type": "Feature", "properties": { "station": "06235", "source_filename": "KMDS__OPER_P___10M_OBS_L2_202609280140.nc", "observation_time": "2026-09-28T01:40:00Z", "D1H": 0.0, "Q1H": 0.0, "Q24H": 1155.48, "R12H": 0.19, "R1H": 0.0, "R24H": 0.19, "R6H": 0.19, "Sav1H": 2.93133, "Sax1H": 3.36, "Sax3H": 3.38, "Sax6H": 5.42, "Sx1H": 4.57, "Sx3H": 5.01, "Sx6H": 10.78, "Tb1n6": null, "Tb1x6": null, "Tb2n6": null, "Tb2x6": null, "Tgn12": 10.6, "Tgn14": 10.6, "Tgn6": 13.9, "Tn12": 14.3, "Tn14": 14.3, "Tn6": 16.0, "Tx12": 20.1, "Tx24": 20.2, "Tx6": 17.9, "W10": 0.0, "W10-10": 0.0, "dd": 190.2, "dn": 171.6, "dr": 0.0, "dsd": 6.8, "dx": 210.9, "ff": 3.36, "ffs": 3.36, "fsd": 0.35, "fx": 4.57, "fxs": 4.57, "gff": 4.57, "gffs": 4.57, "h": 1734.92, "h1": 1734.92, "h2": 2104.92, "h3": 0.0, "hc": 1734.92, "hc1": 1734.92, "hc2": 2104.92, "hc3": 0.0, "n": 8.0, "n1": 5.0, "n2": 8.0, "n3": 0.0, "nc": 8.0, "nc1": 5.0, "nc2": 8.0, "nc3": 0.0, "nhc": 8.0, "p0": 1016.37, "pg": 0.0, "pp": 1016.43, "pr": 0.0, "ps": 1016.3, "pwc": 0.0, "qg": 0.0, "qgn": 0.0, "qgx": 0.0, "qnh": 1016.43, "rg": 0.0, "rh": 95.0, "sq": 0.0, "ss": 0.0, "ta": 17.3, "tb": 16.7768, "tb1": null, "tb2": null, "tb3": null, "tb4": null, "tb5": null, "td": 16.6, "tg": 16.9, "tgn": 16.8, "tn": 17.2, "tsd": null, "tx": 17.3, "vv": 17800.0, "ww": 2.0, "ww-10": 2.0, "za": 4.0, "zm": 17800.0, "wsi": "0-20000-0-06235", "stationname": "De Kooy Airport", "latitude": 52.9269, "longitude": 4.7811, "height": 0.57, "product": "", "projection": "" }, "geometry": { "type": "Point", "coordinates": [ 4.7811, 52.9269 ] } },
{ "type": "Feature", "properties": { "station": "78990", "source_filename": "KMDS__OPER_P___10M_OBS_L2_202609280140.nc", "observation_time": "2026-09-28T01:40:00Z", "D1H": 0.0, "Q1H": 0.0, "Q24H": 2266.38, "R12H": 0.0, "R1H": 0.0, "R24H": 0.0, "R6H": 0.0, "Sav1H": 5.51083, "Sax1H": 5.98, "Sax3H": 6.78, "Sax6H": 7.48, "Sx1H": 8.0, "Sx3H": 8.2, "Sx6H": 10.29, "Tb1n6": null, "Tb1x6": null, "Tb2n6": null, "Tb2x6": null, "Tgn12": 28.9, "Tgn14": 28.9, "Tgn6": 28.9, "Tn12": 28.7, "Tn14": 28.7, "Tn6": 28.7, "Tx12": 33.2, "Tx24": 33.2, "Tx6": 32.6, "W10": 0.0, "W10-10": 0.0, "dd": 77.4, "dn": 46.4, "dr": 0.0, "dsd": 8.1, "dx": 97.0, "ff": 5.98, "ffs": 5.98, "fsd": 0.82, "fx": 8.0, "fxs": 8.0, "gff": 8.0, "gffs": 8.0, "h": 1544.92, "h1": 1544.92, "h2": 1874.92, "h3": 0.0, "hc": 1544.92, "hc1": 1544.92, "hc2": 1874.92, "hc3": 0.0, "n": 4.0, "n1": 2.0, "n2": 4.0, "n3": 0.0, "nc": 4.0, "nc1": 2.0, "nc2": 4.0, "nc3": 0.0, "nhc": 4.0, "p0": 1013.37, "pg": 0.0, "pp": 1013.61, "pr": 0.0, "ps": 1013.3, "pwc": 0.0, "qg": 0.0, "qgn": 0.0, "qgx": 0.0, "qnh": 1013.62, "rg": 0.0, "rh": 78.0, "sq": 0.0, "ss": 0.0, "ta": 28.7, "tb": 25.5672, "tb1": null, "tb2": null, "tb3": null, "tb4": null, "tb5": null, "td": 24.7, "tg": 28.9, "tgn": 28.9, "tn": 28.7, "tsd": null, "tx": 28.8, "vv": 31600.0, "ww": 2.0, "ww-10": 2.0, "za": 9.24, "zm": 31600.0, "wsi": "0-20000-0-78990", "stationname": "Bonaire Airport", "latitude": 12.13, "longitude": -68.2758, "height": 2.11, "product": "", "projection": "" }, "geometry": { "type": "Point", "coordinates": [ -68.2758, 12.13 ] } }
]
}
